dam_name,county,state,latitude,longitude
Alitak Cannery Dam #1,Kodiak Island Borough_AK,AK,56.9,-154.24
Hess Creek Dam,Yukon Flats Reaa_AK,AK,65.59333000000001,-148.3916
Meals Lake Dam,Chugach Reaa_AK,AK,60.531666,-145.75
Balboa Lake Dam,Garland_AR,AR,34.626389,-92.8972219999999
Broadmoor Lake Dam,Pulaski_AR,AR,34.7266669999999,-92.343333
Clearwater Lake Dam,Hot Spring_AR,AR,34.466667,-92.79333299999999
Deer Run Lake Dam,Sharp_AR,AR,36.045,-91.632778
Echols Lake Dam,Sebastian_AR,AR,35.3599999999999,-94.386667
Florence Dam,Pulaski_AR,AR,34.719999999,-92.47333299999991
Ginger Hill Lake Dam,Pulaski_AR,AR,34.803333,-92.55333299999991
Horsehead Lake Dam,Johnson_AR,AR,35.5577779999999,-93.63388899999991
Lake Atalanta Dam,Benton_AR,AR,36.34,-94.0949999999999
Lake Fayetteville,Washington_AR,AR,36.136666999999996,-94.13833299999999
Lake June Dam,Sharp_AR,AR,36.2816669999999,-91.5183329999999
Lake Kiwanie Dam,Sharp_AR,AR,36.305,-91.50833299999991
Lake Mena Dam,Polk_AR,AR,34.5825,-94.19249999999991
Lake Mirandy Dam,Sharp_AR,AR,36.28,-91.520278
Lake Pauline Dam,Saline_AR,AR,34.578333,-92.56
Lake Poinsett Dam,Poinsett_AR,AR,35.523333,-90.675556
Lake Thunderbird Dam,Sharp_AR,AR,36.305,-91.5333329999999
Lakewood Lake No. 1 Dam,Pulaski_AR,AR,34.7833329999999,-92.23999999999901
Lower White Oak Dam,Ouachita_AR,AR,33.701667,-93.09666699999991
Ludwig Lake Dam,Johnson_AR,AR,35.5333329999999,-93.4558329999999
Ola-Dale,Yell_AR,AR,35.0316669999999,-93.23277799999991
Paris Dam,Logan_AR,AR,35.2749999999999,-93.726667
Pebble Lake Dam,Saline_AR,AR,34.6169439999999,-92.543056
Rainbow Lake Dam,Sharp_AR,AR,36.321944,-91.479444
Ricks Dam,Garland_AR,AR,34.5661109999999,-93.0949999999999
Sebastian Lake Dam,Sebastian_AR,AR,35.2133329999999,-94.40333299999999
Spring Lake Dam,Sharp_AR,AR,36.2897219999999,-91.393056
Vagabond Lake Dam,Sharp_AR,AR,36.2833329999999,-91.37138899999991
Wild Plum Lake Dam,Sharp_AR,AR,36.273333,-91.526667
Black Canyon,Navajo_AZ,AZ,34.33083,-110.69806000000001
Buckeye Frs #1,Maricopa_AZ,AZ,33.43278,-112.635
Central Detention,Graham_AZ,AZ,32.768609999999995,-109.79972
Colter,Apache_AZ,AZ,34.360279999999996,-109.41917
Cook Reservoir,Graham_AZ,AZ,32.77528,-109.72778000000001
Fool Hollow,Navajo_AZ,AZ,34.27778,-110.07361000000002
Fredonia,Coconino_AZ,AZ,36.95417,-112.51472
Frye Mesa,Graham_AZ,AZ,32.75417,-109.83361000000001
Green Road Basin,Pinal_AZ,AZ,32.8864,-112.0581
Jaques,Navajo_AZ,AZ,34.19722,-110.0
Maricopa Road Basin,Pinal_AZ,AZ,32.8825,-112.0497
Millett Swale,Navajo_AZ,AZ,34.43056,-110.04111
Odell,Coconino_AZ,AZ,34.93306,-111.63306000000001
Stockton Wash Retarding,Graham_AZ,AZ,32.79139,-109.68833000000001
Walnut Canyon,Coconino_AZ,AZ,35.166109999999996,-111.47583
Kelley Hot Spring Fish,Modoc_CA,CA,41.4488,-120.8418
Matilija,Ventura_CA,CA,34.4838,-119.3084
Misselbeck,Shasta_CA,CA,40.5003,-122.6971
Moccasin Lower,Tuolumne_CA,CA,37.8123,-120.3057
North Fork,Santa Clara_CA,CA,37.0498,-121.2921
Oroville,Butte_CA,CA,39.5426,-121.4915
Adobe Creek,Bent_CO,CO,38.234999,-103.280555
Apishapa,Las Animas_CO,CO,37.334998999999996,-104.77056
Big Battlement,Delta_CO,CO,38.994999,-108.05221999999999
Cucharas #5,Huerfano_CO,CO,37.748315999999996,-104.598293
Florence South Res. No. 2,Fremont_CO,CO,38.338342,-105.1192
Goose Pasture Tarn,Summit_CO,CO,39.454999,-106.03222
Grass Valley,Garfield_CO,CO,39.606669000000004,-107.66056
Jefferson Lake,Park_CO,CO,39.450559000000005,-105.8625
Leon Lake,Mesa_CO,CO,39.068385,-107.80221100000001
Red Mesa Ward,La Plata_CO,CO,37.166669,-108.14222
Sanchez,Costilla_CO,CO,37.113865999999994,-105.41063700000001
Skeel,Denver_CO,CO,39.656665000000004,-104.94388799999999
Smith,Jefferson_CO,CO,39.686771,-105.113413
South Lake,El Paso_CO,CO,38.784999,-104.81056
Tarryall,Park_CO,CO,39.223329,-105.60722
Teller,El Paso_CO,CO,38.449999,-104.83389
Two Buttes,Baca_CO,CO,37.635919,-102.538103
Upper Long Lake,Jefferson_CO,CO,39.822839,-105.23563899999999
Valley No. 1,El Paso_CO,CO,38.872499,-104.875
Valley No. 2,El Paso_CO,CO,38.86472,-104.88028
Vouga,Saguache_CO,CO,38.354999,-106.66389
Walsenburg City Lake,Huerfano_CO,CO,37.596669,-104.85722
Willow Springs #1,Jefferson_CO,CO,39.619136,-105.18049099999999
Y T Ranch,Mesa_CO,CO,39.186669,-107.89388999999998
Acme Pond Dam,Windham_CT,CT,41.847117,-71.817674
Crystal Lake Dam,Middlesex_CT,CT,41.52491,-72.638086
Fitchville Pond Dam,New London_CT,CT,41.5638,-72.155644
Freshwater Pond Dam,Hartford_CT,CT,41.998535,-72.599696
Great Hill Reservior Dam,New Haven_CT,CT,41.375508,-73.13170699999999
Hanover Reservoir Dam,New London_CT,CT,41.647259000000005,-72.06059
North Grosvenordale Dam,Windham_CT,CT,41.991859999999996,-71.895232
Oxoboxo Lake Dam,New London_CT,CT,41.484653,-72.193208
Silvia'S Lower Pond Dam,New London_CT,CT,41.359046,-71.909155
Staffordville Reservoir Dam,Tolland_CT,CT,41.996399,-72.260059
Sylvia'S Upper Pond Dam,New London_CT,CT,41.360413,-71.909461
Williams Pond Dam,Hartford_CT,CT,41.704142,-72.596811
Ingram Pond Dam,Sussex_DE,DE,38.588159999999995,-75.32668000000001
Millsboro Pond Dam,Sussex_DE,DE,38.59448,-75.29099000000001
Moores Lake Dam,Kent_DE,DE,39.126090000000005,-75.51846
Shoals Branch Dam,Sussex_DE,DE,38.57824,-75.34449000000001
Silver Lake Dam - Middletown,New Castle_DE,DE,39.43801,-75.69339000000001
Blue Springs Recreation Lake Dam,Taylor_FL,FL,29.835333000000002,-83.570444
L.P.Hill Dam #2,Columbia_FL,FL,30.168221999999997,-82.603778
L.P.Hill Dam 1,Columbia_FL,FL,30.171573,-82.60983399999999
Meadow View Lake Dam,Polk_FL,FL,28.103331,-81.987938
Un-Named Dam,Polk_FL,FL,28.007271000000003,-81.82927
4-J Farms Lower Lake Dam,Crawford_GA,GA,32.61492,-83.94091
Athens Waterworks Reservoir Dam,Clarke_GA,GA,33.979167,-83.374444
Atlanta Reservoir Dam No. 1,Fulton_GA,GA,33.79425,-84.411528
Baughs Crossroad Lake Dam,Troup_GA,GA,32.92,-85.05
Bedgood'S Lake Dam,Clarke_GA,GA,33.94719,-83.49779000000001
Belair Lake Dam,Henry_GA,GA,33.575278000000004,-84.21583299999999
Berry Reservoir Dam,Floyd_GA,GA,34.325556,-85.263889
Big Cedar Creek Ws Str # 32,Polk_GA,GA,33.9325,-85.267778
Big Cedar Creek Ws Str # 41,Polk_GA,GA,33.937778,-85.21777800000001
Big Cedar Creek Ws Str # 48,Polk_GA,GA,33.95151,-85.19098000000001
Black Rock Mountain Lake Dam,Rabun_GA,GA,34.923840000000006,-83.41216
Blackmon Lake Dam,Muscogee_GA,GA,32.57438,-85.00992
Boleman Hill Road Pond Dam,Hart_GA,GA,34.449417,-82.94255600000001
Bradbury Lake Dam,Fayette_GA,GA,33.505694,-84.522389
Bull Creek Ws Str # 12,Muscogee_GA,GA,32.54634,-84.91468
Bull Creek Ws Str # 14,Muscogee_GA,GA,32.53417,-84.94100999999999
Burdine'S Pond Dam,Fannin_GA,GA,34.833472,-84.36236099999999
Burgess Lake Dam,Troup_GA,GA,32.928611,-84.893056
Carriage Lake Dam,Fulton_GA,GA,33.985875,-84.288011
Cartecay River Ws Str # 3,Gilmer_GA,GA,34.671079999999996,-84.31752
Cartecay River Ws Str # 5,Gilmer_GA,GA,34.667778000000006,-84.286111
Cartecay River Ws Str # 6,Gilmer_GA,GA,34.63747,-84.25655
Cartecay River Ws Str # 7,Gilmer_GA,GA,34.62508,-84.2335
Chastain Lake Dam (Lower-East),Cobb_GA,GA,34.04,-84.551389
Chastain Lake Dam (Upper-West),Cobb_GA,GA,34.041944,-84.556944
Clark Apple Orchard #3,Habersham_GA,GA,34.57195,-83.60421
Clear Lake Dam,White_GA,GA,34.60722,-83.74659
Cochran Lake Dam,Cobb_GA,GA,34.04423,-84.44527
Conasauga Lake Dam,Floyd_GA,GA,34.288333,-85.23472199999999
Cowan Lake Dam,Rockdale_GA,GA,33.601110999999996,-84.039167
Dalton Utilities Impoundment Dike #3,Whitfield_GA,GA,34.789429999999996,-84.87576
Daniels & Thomaselli Lake Dam,Fulton_GA,GA,34.044103,-84.203317
Dobbs Lake Dam,Cobb_GA,GA,33.907139,-84.669744
East Point Reservoir Dam,Fulton_GA,GA,33.697139,-84.542556
Edmondson Lake Dam,Troup_GA,GA,32.95384,-84.88951999999999
Ellijay River W/S Str.  # 11,Gilmer_GA,GA,34.826240000000006,-84.36847
Ellijay River W/S Str. # 3 Dam,Gilmer_GA,GA,34.78302,-84.45361
Ellijay River W/S Str. #4 Dam,Gilmer_GA,GA,34.78756,-84.42666700000001
Ellijay River Ws Str # 10,Gilmer_GA,GA,34.7846,-84.4026
Ellijay River Ws Str # 12,Gilmer_GA,GA,34.81054,-84.35593
Ellijay River Ws Str # 9,Gilmer_GA,GA,34.78003,-84.37666999999999
Erin Lake  Dam,Dekalb_GA,GA,33.867329999999995,-84.2303
Erin'S Place Lake Dam,Columbia_GA,GA,33.432140000000004,-82.21895
Euharlee Creek Ws Str # 4,Polk_GA,GA,33.94,-85.153889
Forest Hills Lake Dam,Richmond_GA,GA,33.478333,-82.059722
Fowler Lake Dam,Gilmer_GA,GA,34.786111,-84.48
Frank C. Amerson Jr. Lake Dam,Bibb_GA,GA,32.892222,-83.73944399999999
Glen Emerald Lake Dam,Dekalb_GA,GA,33.7133,-84.33288
Glenn Lake Dam,Murray_GA,GA,34.743611,-84.736111
Glenover Drive Lake Dam,Fulton_GA,GA,34.140556,-84.332778
Goshen Plantation Lake Dam,Richmond_GA,GA,33.3341,-81.9989
Grandview Lake Dam,Pickens_GA,GA,34.500556,-84.39893000000001
Graves Lake Dam,Fayette_GA,GA,33.275,-84.448611
Harrison Lake Dam,Gilmer_GA,GA,34.737559999999995,-84.46967
Hazel Creek W/S Str. #19,Habersham_GA,GA,34.58827,-83.48331999999999
Hazel Creek Ws Str # 7,Habersham_GA,GA,34.53307,-83.51033000000001
Hightower Creek Ws Str # 13,Towns_GA,GA,34.96709,-83.60418
Hogans Lake Dam,Gwinnett_GA,GA,34.001667,-83.966667
Hulsey Pond Dam,Candler_GA,GA,32.41872,-82.0838
Hunnicutt Lake Dam,Colquitt_GA,GA,31.176111,-83.821389
Imerys 5C Clay Impoundment Dam,Washington_GA,GA,33.03642,-82.89908
Indian Lake Dam,Colquitt_GA,GA,31.22788,-83.74971
Irene Lake Dam,Fulton_GA,GA,34.085190000000004,-84.38695
J. Stephens Lake Dam,Gilmer_GA,GA,34.71705,-84.47837
Jackson Creek Lake Dam,Cobb_GA,GA,33.991111,-84.391111
Keeter Lake Dam,Cherokee_GA,GA,34.189528,-84.515556
Kiker Lake Dam,Gilmer_GA,GA,34.647472,-84.51141700000001
Kings Cliff Lake Dam,Dekalb_GA,GA,33.85771,-84.25952
Kozisek Lake Dam,Fayette_GA,GA,33.493583,-84.454972
Lake Ashley Dam,Carroll_GA,GA,33.65765,-84.923417
Lake At Ansley Dam,Fulton_GA,GA,34.085833,-84.40527800000001
Lake Cindy Dam,Henry_GA,GA,33.41149,-84.30203
Lake Dow Dam,Henry_GA,GA,33.446667,-84.07305600000001
Lake Dow North Dam,Henry_GA,GA,33.46553,-84.06459
Lake Erma Dam,Henry_GA,GA,33.456944,-84.262222
Lake Forrest Dam,Fulton_GA,GA,33.881028,-84.38730600000001
Lake Franklin Dam,Harris_GA,GA,32.82741,-84.77665999999999
Lake George Dam,Carroll_GA,GA,33.6153,-84.96600000000001
Lake Kathy Dam,Whitfield_GA,GA,34.89846,-85.00739
Lake Rockdale Dam,Rockdale_GA,GA,33.704167,-83.979722
Lake Swan Dam,Paulding_GA,GA,33.84895,-84.81728000000001
Lake Wildwood Dam,Bibb_GA,GA,32.86894,-83.763056
Lakefield Commons Lake Dam,Rockdale_GA,GA,33.638611,-84.01083299999999
Lakeside Dam,Bibb_GA,GA,32.84537,-83.57728
Lakeview Plantation Dam,Gwinnett_GA,GA,33.89522,-83.89412
Laura Lake Dam,Cobb_GA,GA,34.005944,-84.554778
Lawson Lake Dam,Monroe_GA,GA,32.968333,-83.733056
Little River W/S  Str. #34,Fulton_GA,GA,34.108056,-84.35333299999999
Little River W/S Str.  #36,Fulton_GA,GA,34.111528,-84.306722
Little River W/S Str. #24,Fulton_GA,GA,34.145083,-84.331528
Little River W/S Str. #25,Fulton_GA,GA,34.15675,-84.30343
Little River W/S Str. #40,Fulton_GA,GA,34.083333,-84.377946
Little River Watershed Structure No. 31,Fulton_GA,GA,34.128056,-84.295278
Little River Ws Str # 39,Fulton_GA,GA,34.083139,-84.39608299999999
Little Sandy Trail Creek Ws Str # 1,Madison_GA,GA,34.101944,-83.348056
Little Sandy-Trail Creek W/S Str. #2,Madison_GA,GA,34.09867,-83.36806
Long Swamp Creek Ws Str # 14,Pickens_GA,GA,34.42433,-84.29733
Long Swamp Creek Ws Str # 8,Pickens_GA,GA,34.44104,-84.33051
Long Swamp Creek Ws Str # 9,Pickens_GA,GA,34.45406,-84.35423
Lookout Lake Dam,Dade_GA,GA,34.80607,-85.47733000000001
Lovejoy Lake Dam,Gilmer_GA,GA,34.67907,-84.40311
Lower Little Tallapoosa Ws Str # 78,Haralson_GA,GA,33.694417,-85.11775
Lower Yarbrough Lake Dam,Washington_GA,GA,32.97978,-82.77614
Margaret Phillips Lake Dam,Fayette_GA,GA,33.497778000000004,-84.452861
Mcclendon Lake Dam,Haralson_GA,GA,33.731722,-85.131389
Mcknight Lake Dam,Coweta_GA,GA,33.26324,-84.56727
Melody Lakes Dam,Harris_GA,GA,32.69748,-84.71723
Mill Glen Lake Dam,Douglas_GA,GA,33.702778,-84.751667
Mill-Canton Creek W/S Str. # 6,Cherokee_GA,GA,34.17066,-84.44969
Moon Lake Dam,Henry_GA,GA,33.463440000000006,-84.16045
Mountaintown Creek Ws Str # 1,Gilmer_GA,GA,34.78743,-84.53245
Mountaintown Creek Ws Str # 2,Gilmer_GA,GA,34.811389,-84.55444399999999
Mountaintown Creek Ws Str # 4,Gilmer_GA,GA,34.726,-84.63816
N. Ga. Rendering Plant Oxidation Pond Dam,Forsyth_GA,GA,34.280833,-84.053611
Nelson Hill Subdivision Lake Dam,Lowndes_GA,GA,30.924166999999997,-83.323611
Nicholson Lake Dam,Clayton_GA,GA,33.584444,-84.274722
Noonday Creek Ws Str # 17,Cobb_GA,GA,34.07585,-84.55301999999999
Noonday Creek Ws Str # 4,Cobb_GA,GA,34.06395,-84.54451
North Broad River W/S Str. #38,Franklin_GA,GA,34.41488,-83.13552
North Fork Broad River Ws Str # 1,Stephens_GA,GA,34.571028000000005,-83.3637
North Fork Broad River Ws Str # 13,Stephens_GA,GA,34.49905,-83.23629
North Fork Broad River Ws Str # 5,Stephens_GA,GA,34.475,-83.253889
Odom Lake Dam,Worth_GA,GA,31.540306,-83.866794
Palmetto Creek Structure # 1 Dam,Harris_GA,GA,32.788056,-84.863333
Parker Lake Dam,Whitfield_GA,GA,34.635,-84.97027800000001
Pegamore Lake Dam,Paulding_GA,GA,34.00671,-84.93128
Pfau Lake Dam,White_GA,GA,34.582221999999994,-83.731944
Piedmont Lake Dam,Harris_GA,GA,32.800278000000006,-85.001667
Pine Log Creek Dam No. 86,Gordon_GA,GA,34.4846,-84.85865
Pine Log Creek Watershed Str #66,Bartow_GA,GA,34.308611,-84.726111
Plantation Subdivision Lake Dam,Douglas_GA,GA,33.686944,-84.73208299999999
Posey Lake Dam,Rabun_GA,GA,34.978982,-83.453284
Potato Creek W/S Str. #66,Pike_GA,GA,33.06751,-84.29029
Pumpkinvine Creek  Ws Str  # 50,Paulding_GA,GA,33.89775,-84.85843
Pumpkinvine Creek W/S Str. # 2 Dam,Bartow_GA,GA,34.09313,-84.80404
Pumpkinvine Creek W/S Str. # 3,Paulding_GA,GA,33.927222,-84.82583299999999
Pumpkinvine Creek W/S Str. #26,Paulding_GA,GA,33.859444,-84.871667
Pumpkinvine Creek Ws Str #1,Paulding_GA,GA,34.082221999999994,-84.79333299999999
Rainbow Lake Dam,Gilmer_GA,GA,34.749829999999996,-84.60313000000001
Rainbow Lake Dam,Lumpkin_GA,GA,34.625417,-83.973889
Ridge Brooke Lake Dam,Paulding_GA,GA,33.80614,-84.84891999999999
Rocky Comfort W/S Str. #50,Warren_GA,GA,33.4225,-82.666944
Roskin Lake Dam,Lumpkin_GA,GA,34.44167,-83.95444
Sallacoa Creek Watershed Dam #77,Gordon_GA,GA,34.52632,-84.69771999999999
Sandy Creek Ws Structure  #23,Jackson_GA,GA,34.139444,-83.40916700000001
Sandy Creek Ws Structure # 12,Jackson_GA,GA,34.147222,-83.376389
Sandy Creek Ws Structure # 15,Jackson_GA,GA,34.176944,-83.401944
Sautee Creek W/S Str. #12,White_GA,GA,34.72379,-83.67477
Sautee Creek W/S Str. #13,White_GA,GA,34.70655,-83.67334
Seagraves Mill Pond Dam,Madison_GA,GA,34.09644,-83.35618000000001
Sequoyah Lake Dam,Pickens_GA,GA,34.544167,-84.37138900000001
Settingdown Creek Sub Ws Str # 27,Forsyth_GA,GA,34.2682,-84.25200000000001
Settingdown Creek Ws Str # 25,Forsyth_GA,GA,34.264167,-84.186111
Settingdown Creek Ws Str # 30 A,Forsyth_GA,GA,34.246666999999995,-84.220556
Settingdown Creek Ws Str # 54,Forsyth_GA,GA,34.309722,-84.100278
Settingdown Creek Ws Str # 56,Forsyth_GA,GA,34.314609999999995,-84.07016
Settingdown Creek Ws Str # 6,Forsyth_GA,GA,34.29265,-84.0827
Seventh Day Adventist Lake Dam,Murray_GA,GA,34.891056,-84.72805600000001
Sharp Mountain Creek Ws Str # 1,Pickens_GA,GA,34.440059999999995,-84.46095
Sharp Mountain Creek Ws Str # 12,Pickens_GA,GA,34.43926,-84.4421
Sharp Mountain Creek Ws Str # 13,Pickens_GA,GA,34.41191,-84.43027
Sharp Mountain Creek Ws Str # 2,Pickens_GA,GA,34.431944,-84.465556
Sharp Mountain Creek Ws Str # 22,Pickens_GA,GA,34.425833000000004,-84.40722199999999
Shaw Lake Dam,Gilmer_GA,GA,34.80145,-84.445264
Sibley Millpond Dam,Coweta_GA,GA,33.247222,-84.728611
Simpson Lake Dam,Harris_GA,GA,32.625,-84.918806
Skyland Lake Dam,Henry_GA,GA,33.344167,-84.08555600000001
Soque Creek W/S Str. #44,Habersham_GA,GA,34.609183,-83.446936
Soque River Ws Str # 13,Habersham_GA,GA,34.65416,-83.57972
South  River W/S Str. # 51,Madison_GA,GA,34.12944,-83.27696999999999
South Fork Broad River W/S Str. # 65,Oglethorpe_GA,GA,33.918079999999996,-83.18981
South Fork Broad River W/S Str. #64,Madison_GA,GA,34.09793,-83.1231
South Fork Broad River Ws Str # 35,Madison_GA,GA,34.09328,-83.29653
South Fork River Ws Str # 27,Madison_GA,GA,34.147909999999996,-83.27089000000001
South Fork River Ws Str # 31,Madison_GA,GA,34.047736,-83.276489
Stonebridge Lake Dam,Floyd_GA,GA,34.339444,-85.189444
Stonegate Lake Dam,Fulton_GA,GA,34.049167,-84.399722
Stringers Lake Dam,Polk_GA,GA,33.99277,-85.106111
Summit Chase No. 1 Dam (Upstream),Gwinnett_GA,GA,33.854167,-83.97027800000001
Talking Rock Creek W/S Str. # 1,Pickens_GA,GA,34.453610999999995,-84.597778
Talking Rock Creek Ws Str # 13,Pickens_GA,GA,34.51318,-84.48042
Tara Lake Dam,Appling_GA,GA,31.81025,-82.31300999999999
Tara Lake Dam,Carroll_GA,GA,33.645678000000004,-84.916622
Tera Lee Lake Dam,Fulton_GA,GA,33.899528000000004,-84.393556
The Farm Lake Dam,Oconee_GA,GA,33.84688,-83.5133
Timber Lake Dam,Cobb_GA,GA,34.03417,-84.59944
Trout Farm Lake Dam,Towns_GA,GA,34.985240000000005,-83.70841999999999
Vogel State Park Lake Dam,Union_GA,GA,34.76931,-83.91702
Walden Woods Lake Dam,Washington_GA,GA,33.006640000000004,-82.78934
Walter Richards Lake Dam,Harris_GA,GA,32.70344,-85.07559
Watson Road Lake Dam,Forsyth_GA,GA,34.256111,-84.203056
Weems Lake Dam,Henry_GA,GA,33.491667,-84.241111
Wigley Lake Dam,Cobb_GA,GA,34.005556,-84.51527800000001
Willow Lake Dam,Fulton_GA,GA,33.993936,-84.289389
Willow Pond,Paulding_GA,GA,34.044990000000006,-84.75429
Woodbridge Lake Dam,Columbia_GA,GA,33.561440000000005,-82.15265
York Lake Dam,Polk_GA,GA,34.006170000000004,-85.31021
Young Lake Dam,Fannin_GA,GA,34.855556,-84.39
Aahoaka Reservoir,Kauai_HI,HI,22.040388,-159.402379
Aepoekolu Reservoir,Kauai_HI,HI,21.907991,-159.487699
Elima Reservoir,Kauai_HI,HI,21.929962,-159.531674
Field 1 Kealia Reservoir,Kauai_HI,HI,22.130470000000003,-159.35218799999998
Field 2 Kealia Reservoir,Kauai_HI,HI,22.129532,-159.345087
Halenanahu Reservoir,Kauai_HI,HI,21.964972,-159.432083
Hanakaoo Reservoir,Maui_HI,HI,20.928707,-156.648924
Hawi No. 5 Reservoir,Hawaii_HI,HI,20.247016000000002,-155.843758
Hc&S Reservoir 14,Maui_HI,HI,20.910645000000002,-156.348805
Hc&S Reservoir 15,Maui_HI,HI,20.905023,-156.34745800000002
Hc&S Reservoir 20,Maui_HI,HI,20.871179,-156.341573
Hc&S Reservoir 24,Maui_HI,HI,20.887562,-156.355392
Hc&S Reservoir 42,Maui_HI,HI,20.825567000000003,-156.37964399999998
Hc&S Reservoir 52,Maui_HI,HI,20.859574,-156.40258500000002
Hc&S Reservoir 61,Maui_HI,HI,20.872459,-156.412256
Hc&S Reservoir 70,Maui_HI,HI,20.873616000000002,-156.435145
Hc&S Reservoir 73,Maui_HI,HI,20.877623,-156.495606
Hc&S Reservoir 81,Maui_HI,HI,20.814456,-156.416676
Hc&S Reservoir 84,Maui_HI,HI,20.840815,-156.42505
Helemano 6 Reservoir,Honolulu_HI,HI,21.552777,-158.06563500000001
Horner Reservoir,Maui_HI,HI,20.925222,-156.648795
Hukiwai Reservoir,Kauai_HI,HI,21.905734,-159.55911799999998
Ipuolono Reservoir,Kauai_HI,HI,21.920425,-159.536125
Kahoma Reservoir,Maui_HI,HI,20.901881,-156.640616
Kalihiwai Reservoir,Kauai_HI,HI,22.187054,-159.432378
Kaloko Reservoir,Kauai_HI,HI,22.178132,-159.379767
Kaneha Reservoir,Kauai_HI,HI,22.131118,-159.371343
Kapa Reservoir,Kauai_HI,HI,21.914944000000002,-159.572544
Kauai Lagoons,Kauai_HI,HI,21.957628,-159.346259
Kaupale Reservoir,Kauai_HI,HI,21.904992,-159.495728
Keaiwa Reservoir,Hawaii_HI,HI,19.248499,-155.499877
Kehalani Offsite Retention Basin,Maui_HI,HI,20.858112,-156.496687
Kemoo 5 Reservoir,Honolulu_HI,HI,21.556074,-158.103653
Kepani Reservoir,Kauai_HI,HI,22.002352,-159.617526
Kitano Reservoir,Kauai_HI,HI,22.028432000000002,-159.673562
Ku Tree Reservoir,Honolulu_HI,HI,21.497567,-157.981111
Kumano Reservoir,Kauai_HI,HI,21.900292999999998,-159.497421
Lower Kapahi Reservoir,Kauai_HI,HI,22.101591,-159.35281899999998
Mana Reservoir,Kauai_HI,HI,22.031933,-159.758903
Manuhonuhonu Reservoir,Kauai_HI,HI,21.894485,-159.48032800000001
Mau Reservoir,Kauai_HI,HI,21.927187,-159.530972
Mimino Reservoir,Kauai_HI,HI,22.114864,-159.361788
Nuuanu Dam No. 4,Honolulu_HI,HI,21.352632999999997,-157.80780900000002
Nuuanu Reservoir No. 1,Honolulu_HI,HI,21.339684,-157.837398
Oahu Reservoir 155,Honolulu_HI,HI,21.404622,-158.059328
Okinawa Reservoir,Kauai_HI,HI,22.006322,-159.365055
Omao Reservoir,Kauai_HI,HI,21.921116,-159.48321299999998
Opaeula 15 Reservoir,Honolulu_HI,HI,21.575369,-158.053402
Papaaea Reservoir,Maui_HI,HI,20.883114000000003,-156.206434
Pia Mill Reservoir,Kauai_HI,HI,21.920673999999998,-159.471302
Piwai Reservoir,Kauai_HI,HI,21.932752,-159.490397
Twin Reservoirs,Kauai_HI,HI,22.082227,-159.348859
Ukumehame Reservoirs,Maui_HI,HI,20.809901999999997,-156.587062
Upper Helemano Reservoir,Honolulu_HI,HI,21.52673,-158.02901699999998
Wahiawa Dam,Honolulu_HI,HI,21.497654999999998,-158.049151
Waiakalua Reservoir,Kauai_HI,HI,22.199814,-159.373854
Waikoloa Reservoir No. 1,Hawaii_HI,HI,20.038120000000003,-155.67246799999998
Waikoloa Reservoir No. 2,Hawaii_HI,HI,20.038917,-155.675203
Wailuku Water Reservoir 10,Maui_HI,HI,20.865752,-156.512793
Autumn Lake Dam,Brown_IN,IN,39.321943,-86.27111
Autumn Winds Dam,Vanderburgh_IN,IN,38.058333000000005,-87.56722099999999
Beechwood Lake Dam,Greene_IN,IN,39.084721,-86.88110999999999
Bittersweet Lake Dam,Brown_IN,IN,39.321943,-86.169443
Bittner Lake Dam,Vanderburgh_IN,IN,38.084721,-87.61
Busseron Dam No. L-1,Sullivan_IN,IN,39.101665999999994,-87.42361
Crawfordsville Community Sportsmens Club Lake Dam,Montgomery_IN,IN,40.033888,-86.96583299999999
Crosstie Lake Dam,Ripley_IN,IN,39.288055,-85.23722099999999
Daisy Lake Dam,Vigo_IN,IN,39.508333,-87.440555
Delaney Creek Dam No. 1,Washington_IN,IN,38.694721,-86.067777
Delaney Creek Dam No. 14,Washington_IN,IN,38.694721,-86.01694300000001
Delaney Creek Dam No. 16,Washington_IN,IN,38.728609999999996,-86.067777
Delaney Creek Dam No. 2,Washington_IN,IN,38.677777,-86.050833
Delaney Creek Dam No. 3,Washington_IN,IN,38.694721,-86.067777
Dugan Lake Dam,Owen_IN,IN,39.321943,-86.7625
Falcon Crest Lake Dam,Morgan_IN,IN,39.474443,-86.491388
Forest Lake Dam,Hendricks_IN,IN,39.755,-86.408333
Hart Lake Dam,Morgan_IN,IN,39.559166,-86.440555
Hawthorn Park Dam,Vigo_IN,IN,39.491388,-87.321943
Hillview Lake Dam,Jackson_IN,IN,38.813333,-86.067777
Klingman Lake Dam,Scott_IN,IN,38.643888000000004,-85.61
Kokomo Waterworks Off Channel Dam,Howard_IN,IN,40.491388,-86.0
La Lumiere Dam,Laporte_IN,IN,41.711665999999994,-86.71166600000001
Lake Deturk Dam,Morgan_IN,IN,39.440554999999996,-86.406666
Lake Geneva Dam,Switzerland_IN,IN,38.864166,-85.033888
Lake George Dam,Steuben_IN,IN,41.7625,-85.0
Lake Haven Dam,Henry_IN,IN,39.864166,-85.491388
Lake Latonka Dam,Marshall_IN,IN,41.288055,-86.406666
Lake Of The Four Seasons (Lower) C,Lake_IN,IN,41.389721,-87.220277
Lake Of The Woods Dam,Porter_IN,IN,41.4575,-87.050833
Lake Salinda Dam,Washington_IN,IN,38.57611,-86.084721
Magness Lake Dam #1,Brown_IN,IN,39.203333,-86.27111
Miller Lake Dam,Brown_IN,IN,39.203333,-86.23722099999999
Moriarity Lake Dam,Grant_IN,IN,40.525277,-85.61
Muddy Fork Structure No. 3,Clark_IN,IN,38.440554999999996,-85.982777
Muddy Fork Structure No. 6,Clark_IN,IN,38.440554999999996,-85.898055
North Lake Estates West Lake Dam,Vanderburgh_IN,IN,38.050833000000004,-87.660833
Ogle Lake Dam,Brown_IN,IN,39.1525,-86.23722099999999
Orleans Lake Dam,Orange_IN,IN,38.677777,-86.440555
Reverend Frame Lake Dam,Brown_IN,IN,39.203333,-86.27111
Ridgeview Lake Dam,Cass_IN,IN,40.728609999999996,-86.525277
Robert Crowder Dam,Parke_IN,IN,39.677777,-87.10166600000001
Roc-Mar-Ton Lake Dam,Madison_IN,IN,40.0,-85.593055
Roger Young Lake Dam,Johnson_IN,IN,39.338888,-86.13555500000001
Saddle Lake Dam,Adams_IN,IN,40.864166,-84.898055
Schnellville Conservation Club Lake Dam,Dubois_IN,IN,38.355833000000004,-86.74555500000001
Sugar Hills Lake Dam,Hancock_IN,IN,39.864166,-85.830277
Svcd Structure No. F-6 (Collins Lake),Orange_IN,IN,38.474443,-86.593055
Terrace Lake Dam,Bartholomew_IN,IN,39.186388,-85.96583299999999
Thomas J. Miller Lake Dam,Scott_IN,IN,38.643888000000004,-85.72861
Tousley Dam,Brown_IN,IN,39.237221000000005,-86.084721
Treece Lake Dam,Tippecanoe_IN,IN,40.508333,-86.74555500000001
Twin-Rush Creek Dam No. 1,Washington_IN,IN,38.694721,-86.220277
Twin-Rush Creek Dam No. 2,Washington_IN,IN,38.694721,-86.1525
Twin-Rush Creek Dam No. 3,Washington_IN,IN,38.677777,-86.169443
Upper Spring Lake Dam,Morgan_IN,IN,39.593055,-86.305
Van Rooy Lake Dam,Morgan_IN,IN,39.440554999999996,-86.288055
Versailles Lake Dam,Ripley_IN,IN,39.067777,-85.23722099999999
Wagner Youth Camp Lake Dam,Grant_IN,IN,40.593055,-85.660833
Whip-Poor-Will Dam,Morgan_IN,IN,39.338888,-86.47444300000001
Wildwood Shores Lake Dam,Morgan_IN,IN,39.61,-86.288055
Wright Lake Dam,Brown_IN,IN,39.169443,-86.11861
Yarling Lake Dam,Brown_IN,IN,39.321943,-86.186388
Young Lake Dam,Monroe_IN,IN,39.132221,-86.49333299999999
Zehner Mill Pond Dam,Marshall_IN,IN,41.305,-86.406666
Cedar Lake (Old Olathe Lake),Johnson_KS,KS,38.846427,-94.84945
Dam No 1,Wyandotte_KS,KS,39.066384,-94.84083100000001
Dd No 4-14A,Hodgeman_KS,KS,38.04853485,-100.02999657
Dd No A-1,Gray_KS,KS,37.81004602,-100.37614930000001
Dd No B-1,Gray_KS,KS,37.81277723,-100.36104749
Dd No D-1,Gray_KS,KS,37.80926587,-100.33743255
Dd No E-1,Gray_KS,KS,37.80881233,-100.32581331
Dd No M-9,Franklin_KS,KS,38.554793,-95.352214
Frd No 5,Chautauqua_KS,KS,37.15183869,-96.42261693
Frd No 5,Shawnee_KS,KS,38.94454266,-95.75192453
Gs Dd No D-34,Jackson_KS,KS,39.40540902,-95.63496127
Highland Lake Dam,Lincoln_KS,KS,38.92982,-98.387149
International Speedway,Wyandotte_KS,KS,39.108414,-94.81756
Jaycee Dam,Butler_KS,KS,37.74525552,-96.95739634
Lake Dabinawa,Jefferson_KS,KS,39.13099977,-95.24021311
Lake Estates West,Linn_KS,KS,38.284603000000004,-94.82701899999999
Legacy Lakes,Shawnee_KS,KS,38.99157979,-95.7865775
Lugar Dam,Wyandotte_KS,KS,39.126233,-94.907312
Rimrock Dam,Geary_KS,KS,39.021738,-96.850267
Rogers Dam,Riley_KS,KS,39.22452595,-96.60434979
Santa Fe Lake Dam,Butler_KS,KS,37.704077000000005,-97.047196
South Branch Dam,Shawnee_KS,KS,38.997780999999996,-95.7122
Upper Dam,Butler_KS,KS,37.75617187,-97.05516317
Wallace Dam,Wyandotte_KS,KS,39.090303999999996,-94.82687
Willow Lake,Johnson_KS,KS,38.87050996,-94.61624958
Beech Creek Dam,Clay_KY,KY,37.167724,-83.70852
Blancett Dam,Breckinridge_KY,KY,37.783361,-86.449349
Bloomfield City Park Dam,Nelson_KY,KY,37.9136111111111,-85.3227777777778
Boltz Lake Dam,Grant_KY,KY,38.706769,-84.619626
Brereton Jones Dam,Gallatin_KY,KY,38.76699,-84.7965
Buck Creek Frs No 4,Lincoln_KY,KY,37.3827777777778,-84.55722222222221
Bullitt Co Sportsmens Club Dam,Bullitt_KY,KY,37.941148,-85.657438
Bullock Pen Lake Dam,Grant_KY,KY,38.7883333333333,-84.6558333333333
Caney Creek Frs 6,Grayson_KY,KY,37.44129,-86.49809
Cedar Creek Dam,Lincoln_KY,KY,37.496071,-84.55109
Chamberlain Branch Frs 1,Estill_KY,KY,37.691801,-83.954427
Claryville Lake Dam,Campbell_KY,KY,38.9125,-84.3991666666667
Covered Bridge Farm Lake Dam,Oldham_KY,KY,38.365,-85.5902777777778
Cranks Creek Lake Dam,Harlan_KY,KY,36.7385,-83.23808000000001
Curtis Begley Lake,Owsley_KY,KY,37.4827777777778,-83.7558333333333
David Tarter,Adair_KY,KY,37.183174,-85.048694
Duncan Nave Dam,Jessamine_KY,KY,37.886576,-84.567047
East Fork Clarks River Frs No 32,Marshall_KY,KY,36.919294,-88.35595500000001
East Fork Clarks River Frs No 33,Marshall_KY,KY,36.961715999999996,-88.40042
Echo Dam,Powell_KY,KY,37.8280555555556,-83.8736111111111
Elkhorn Lake Dam,Letcher_KY,KY,37.168366,-82.634689
Elmer Wilmot Farm Dam,Garrard_KY,KY,37.524479,-84.381483
Fordsville Lake Dam,Ohio_KY,KY,37.63865,-86.71088
Fox Creek Frs 3,Fleming_KY,KY,38.341963,-83.552173
Fox Creek Frs 6A,Fleming_KY,KY,38.317788,-83.539647
Gilbert Dam,Bullitt_KY,KY,38.085167,-85.706041
Guist Creek Lake Dam,Shelby_KY,KY,38.20722222222221,-85.1583333333333
Harmony Lake Dam,Oldham_KY,KY,38.4075,-85.58944444444441
Hollybush Dam,Perry_KY,KY,37.38405,-83.270911
Homestead Lake Dam,Hopkins_KY,KY,37.1763,-87.55145999999999
Kentucky River Dam No 10,Madison_KY,KY,37.89504,-84.262
Lake Carnico Dam,Nicholas_KY,KY,38.34579,-84.0439
Lake Nevin Dam,Bullitt_KY,KY,37.919445,-85.67219200000001
Lexington Reservoir No 3,Fayette_KY,KY,38.0005555555556,-84.4727777777778
Lexington Reservoir No 4,Fayette_KY,KY,37.9772222222222,-84.44944444444441
Liberty Reservoir Dam,Casey_KY,KY,37.323195,-84.895901
Loch Mary Reservoir Dam,Hopkins_KY,KY,37.27383,-87.51890999999999
Lower Alexandria Dam,Campbell_KY,KY,38.9677777777778,-84.3716666666667
Lower Eagle Creek Golf Course Dam,Oldham_KY,KY,38.3805555555556,-85.3666666666667
Luzerne Lake Dam,Muhlenberg_KY,KY,37.213135,-87.195987
Maple Leaf Dam,Ohio_KY,KY,37.5633333333333,-86.9763888888889
Marion County Sportsmans Dam,Marion_KY,KY,37.5130555555556,-85.2480555555556
Marsillett Dam,Floyd_KY,KY,37.696706,-82.894254
Mckee Scout Camp Lake Dam,Montgomery_KY,KY,37.9375,-83.93222222222221
Mclean County Fish & Game Club Lake,Mclean_KY,KY,37.609801000000004,-87.252585
Melvin Stinson Lake,Todd_KY,KY,36.83972222222221,-87.15194444444441
Mill Creek Mps No 4,Monroe_KY,KY,36.682956,-85.701311
Mitchell Hill Lake Dam,Jefferson_KY,KY,38.080713,-85.763954
Morganfield City Lake Dam,Union_KY,KY,37.6822222222222,-87.8883333333333
Norton Commons Dam,Jefferson_KY,KY,38.32145,-85.5695
Nortonville Lake Dam,Hopkins_KY,KY,37.181,-87.46381
Otter Lake Dam,Hopkins_KY,KY,37.406562,-87.518005
Otter Lake Dam No 2,Hopkins_KY,KY,37.397069,-87.52731
Quinn Dam,Hancock_KY,KY,37.78068,-86.7078
Ralph Waldrop Lake (East),Graves_KY,KY,36.704862,-88.58921099999999
Ralph Waldrop Lake Dam (West),Graves_KY,KY,36.72782,-88.67156
Red Lick Creek Frs 12,Madison_KY,KY,37.580020000000005,-84.21091
Red Lick Creek Mps 1,Madison_KY,KY,37.546079999999996,-84.18325
Renfro Dam,Rockcastle_KY,KY,37.384392999999996,-84.335188
Rice Lake Dam,Lincoln_KY,KY,37.4869444444444,-84.6775
Salt Lick Creek Frs 1,Menifee_KY,KY,37.992315999999995,-83.668228
Salt Lick Creek Frs No 5,Bath_KY,KY,38.0247222222222,-83.6213888888889
Salt Lick Creek Mps No 3,Bath_KY,KY,38.058307,-83.599052
Scenic Lake Dam,Henderson_KY,KY,37.878101,-87.562286
Shadow Lake Dam,Campbell_KY,KY,38.999646999999996,-84.432437
Spring Lake Dam,Hopkins_KY,KY,37.324722222222206,-87.51388888888891
Tank Pond Dam,Boyle_KY,KY,37.585493,-84.907854
Taylor Fork Lake Dam,Madison_KY,KY,37.70367,-84.35703000000001
Walker Construction Dam,Menifee_KY,KY,37.9378811,-83.654546
Wallitsch Dam,Spencer_KY,KY,38.050277777777794,-85.44527777777779
West Fork Clarks River Frs No 22,Graves_KY,KY,36.923605,-88.612765
West Fork Mayfield Creek Frs 12,Graves_KY,KY,36.795976,-88.803786
West Fork Mayfield Creek Frs 16,Carlisle_KY,KY,36.808055555555605,-88.8372222222222
Wiley Miller Dam,Perry_KY,KY,37.355615,-83.29100799999999
Willisburg Lake Dam,Washington_KY,KY,37.8269444444444,-85.16305555555559
Winona Reservoir Dam,Powell_KY,KY,37.761944444444396,-83.8002777777778
Wood Creek Lake Dam,Laurel_KY,KY,37.214283,-84.198335
Zachariah Lake Dam,Lee_KY,KY,37.689203000000006,-83.709897
Bayou Bodcau,Bossier_LA,LA,32.7019444444445,-93.51100000000001
Iatt Lake Dam,Grant_LA,LA,31.552,-92.65799999999999
Longville Lake,Beauregard_LA,LA,30.607,-93.2466666666667
Wallace Lake Dam,Caddo And Desoto_LA,LA,32.319,-93.67
Christina,Aroostook_ME,ME,46.69,-67.891666667
Emery Mills,York_ME,ME,43.49354,-70.84728100000001
Howard Pond,Oxford_ME,ME,44.506305,-70.714993
Lower West Bay Pond,Hancock_ME,ME,44.488347,-68.046214
Mcdonough Brook,Oxford_ME,ME,44.167955,-70.999115
Lake Bronson,Kittson_MN,MN,48.723009999999995,-96.63414
Lanesboro,Fillmore_MN,MN,43.71687,-91.97895
Pelican Rapids,Otter Tail_MN,MN,46.56986,-96.08225
Abiaca Watershed Structure Y-34-03 Dam,Carroll_MS,MS,33.3835904218,-90.08843437739999
Abiaca Watershed Structure Y-34-04 Dam,Carroll_MS,MS,33.38359296,-90.07547006760001
Abiaca Watershed Structure Y-34-05 Dam,Carroll_MS,MS,33.3859486564,-90.0462619349
Abiaca Watershed Structure Y-34-06 Dam,Carroll_MS,MS,33.381621708400004,-90.02688759680001
Abiaca Watershed Structure Y-34-07 Dam,Carroll_MS,MS,33.3583320962,-89.9976145108
Abiaca Watershed Structure Y-34-09 Dam,Carroll_MS,MS,33.3141195232,-89.9498414717
Abiaca Watershed Structure Y-34-10 Dam,Carroll_MS,MS,33.3545485295,-90.05956876649999
Abiaca Watershed Structure Y-34-13 Dam,Carroll_MS,MS,33.4932196994,-90.0665399577
Abiaca Watershed Structure Y-34-25 Dam,Carroll_MS,MS,33.3648196466,-90.0025707761
Abiaca Watershed Structure Y-34-29 Dam,Carroll_MS,MS,33.3286832076,-90.00168885149999
Abotlapoota Creek Ws Str Y-34-11 Dam,Carroll_MS,MS,33.4482257014,-90.06263825629999
Abotlapoota Ws Str Y-34-15 Dam,Carroll_MS,MS,33.4458929717,-90.0652394966
Anchor Lake Dam,Pearl River_MS,MS,30.6282540227,-89.5990067873
Arrington Lake Dam,Madison_MS,MS,32.5182723179,-90.1150237315
Ascalmore Structure Y-17A-01 Dam,Tallahatchie_MS,MS,33.917742675599996,-89.99674172479999
Ascalmore Structure Y-17A-02 Dam,Tallahatchie_MS,MS,33.909401046599996,-90.0447739734
Bahala Creek Ws Str 2 Dam,Lincoln_MS,MS,31.6544837473,-90.3740381595
Beaver Lake Dam,Lamar_MS,MS,31.1381342669,-89.3505510909
Bentonia Watershed Structure 7 Dam,Yazoo_MS,MS,32.6281910621,-90.3995115466
Big Creek Watershed Structure 9 Dam,Jones_MS,MS,31.733431974600002,-89.3276888066
Big Jones Lake Dam,Lafayette_MS,MS,34.309540000000005,-89.53035
Big Lake Dam,Calhoun_MS,MS,33.7778876275,-89.29654453709999
Big Sand Watershed Structure Y-32-02 Dam,Carroll_MS,MS,33.5315404575,-89.88729732280001
Big Sand Watershed Structure Y-32-09A Dam,Carroll_MS,MS,33.4821310091,-89.84216375
Big Sand Watershed Structure Y-32-09B Dam,Carroll_MS,MS,33.4848177538,-89.8570754542
Big Sand Watershed Structure Y-32-10 Dam,Carroll_MS,MS,33.5438266706,-89.8306795731
Big Sand Watershed Structure Y-32-11 Dam,Carroll_MS,MS,33.5505522384,-89.8534214181
Big Sand Watershed Structure Y-32-17 Dam,Carroll_MS,MS,33.5866677194,-90.0248043038
Black Creek Cooling Water Dam,Jackson_MS,MS,30.5403675283,-88.5147803842
Bounds Lake Dam,Lauderdale_MS,MS,32.3935751657,-88.7394631541
Brinkley Lake Dam,Tishomingo_MS,MS,34.8266998286,-88.16487811969999
Brown Lake Dam,Lafayette_MS,MS,34.29846,-89.52252
Buntyn Creek Ws Str Y-16A-2 Dam,Tallahatchie_MS,MS,34.1092659317,-90.0687304754
Burnt Corn Ws Str 5 Dam,Madison_MS,MS,32.5541986659,-90.1888703517
Busick Lake Dam,Rankin_MS,MS,32.2462085796,-89.9735044023
C W Downer Pond Dam,Lauderdale_MS,MS,32.4400318008,-88.68747604100001
Camelot Lake Dam,Warren_MS,MS,32.237779511,-90.8336867665
Chiwapa Ws Str 29 Dam,Pontotoc_MS,MS,34.2418360075,-88.8303141267
Chunky River Ws Number 8 Dam,Newton_MS,MS,32.5424363199,-89.04288542309999
Chunky River Ws Str 47 Dam,Newton_MS,MS,32.5008670002,-89.14266041270001
Chuquatonchee Ws Str 07 Dam,Chickasaw_MS,MS,33.9895728716,-88.9269432061
Collin Lake Dam,Hinds_MS,MS,32.2209861639,-90.32693661219999
Cooks Lake Dam,Hinds_MS,MS,32.3137903047,-90.2642006751
Cypress Creek Ws Str Y-19A-08 Dam,Yalobusha_MS,MS,34.0325498339,-89.7664672634
Dennery Pond Dam,Hinds_MS,MS,32.3917962444,-90.2689859599
Dry Creek Watershed Structure 3 Dam,Covington_MS,MS,31.7481546419,-89.730466839
East And West Goose Str R-9-1 Dam,Lafayette_MS,MS,34.3542949288,-89.5537945101
East And West Goose Str R-9-2 Dam,Lafayette_MS,MS,34.3514400819,-89.5566649301
Eden Creek Ws Str Y-37D-10 Dam,Yazoo_MS,MS,32.9663471895,-90.32870646059999
Faulkner Lake Dam,Lauderdale_MS,MS,32.3384701301,-88.67381652620001
Flood Water Retarding Structure Site 35,Holmes_MS,MS,33.1201587402,-89.98098656270001
Flowers Lake Dam,Jones_MS,MS,31.5655555555556,-89.2975
Go Go Road Lake Dam,Pearl River_MS,MS,30.75944,-89.3658333333333
Grays  Creek Ws Str G-6-2 Dam,Benton_MS,MS,34.940247765100004,-89.31184923459999
Greasy Creek Ws Str Lt-1A-11 Dam,Lafayette_MS,MS,34.513044233,-89.70365132149999
Hell Creek Ws Str Lt-9B-2 Dam,Union_MS,MS,34.5887181812,-89.0780867504
Holiday Creek Ws Str 3 Dam,Marion_MS,MS,31.389672735500003,-89.8623038936
Holliday Creek Ws Str 4 Dam,Marion_MS,MS,31.3871299937,-89.81046677180001
Hotophia Creek Ws Str Y-10A-52 Dam,Panola_MS,MS,34.302657278699996,-89.7883453723
Hoy Lake Dam,Hinds_MS,MS,32.392650523600004,-90.1071706858
Indian Creek Ws Str Y-9A-07 Dam,Panola_MS,MS,34.5031659974,-90.17874281510001
Indian Creek Ws Str Y-9A-08 Dam,Panola_MS,MS,34.5088022446,-90.1726545619
Indian Creek Ws Str Y-9A-14 Dam,Panola_MS,MS,34.4582377353,-90.14389337940001
J B Lyon Pond Dam,Desoto_MS,MS,34.9803151721,-89.82723191870001
Lake Druid Dam,Lauderdale_MS,MS,32.3887802794,-88.73568399969999
Lake Hazle Dam,Copiah_MS,MS,31.8677730097,-90.404066593
Lake Hilda,Warren_MS,MS,32.243814558400004,-90.91548796100001
Lake Linda,Warren_MS,MS,32.2396147105,-90.9139117889
Lake Piomingo Dam,Lee_MS,MS,34.322240439699996,-88.6329390175
Lakemont Lake Dam,Lauderdale_MS,MS,32.347120024,-88.69117234139999
Lakewood Lake Dam,Lauderdale_MS,MS,32.3877838803,-88.7403529901
Leroy George Lake Dam,Warren_MS,MS,32.248146391,-90.8619945216
Loflin Lake Dam,Rankin_MS,MS,32.0943815319,-90.130607058
Madison 16Th Section Lake Dam,Madison_MS,MS,32.44732,-90.19993000000001
Magnolia Lake Estates Dam,Lauderdale_MS,MS,32.4742674742,-88.8734514811
Maywood Subdivision -  Shahkoka Dam,Desoto_MS,MS,34.9683333333333,-89.8502777777778
Maywood Subdivision - Woodland Lake Dam,Desoto_MS,MS,34.9691192454,-89.8426722934
Mcgee Lake Dam,Hinds_MS,MS,32.2677519231,-90.4406507708
Megan Drive Lake Dam,Desoto_MS,MS,34.9258333333333,-89.92944444444441
Mimosa Lake Dam,Hinds_MS,MS,32.2524985115,-90.3394265309
Mirror Lake Dam,Lauderdale_MS,MS,32.3434239903,-88.68680614739999
Ms05625 Lake Dam,Lauderdale_MS,MS,32.36643,-88.76656
Ms05765 Lake Dam,Lauderdale_MS,MS,32.43871,-88.68982
Ms05766 Lake Dam,Lauderdale_MS,MS,32.41473,-88.60842
Ms05901 Lake Dam,Lauderdale_MS,MS,32.49935,-88.50197
Muddy Creek Watershed Structure 24A Dam,Tippah_MS,MS,34.8188888888889,-88.91305555555559
Muddy Creek Ws Str 2 Dam,Tippah_MS,MS,34.8115482401,-88.9546765949
Murray Creek Ws Str Y-13A-1 Dam,Lafayette_MS,MS,34.2594444738,-89.4814024727
Murray Creek Ws Str Y-13A-5 Dam,Lafayette_MS,MS,34.2575,-89.4908333333333
Oaklimeter Creek Watershed Structure Lt-8-17 Dam,Benton_MS,MS,34.6382951507,-89.2307224916
Okonatie Ws Str Ut-25-1 Dam,Union_MS,MS,34.3977965399,-88.89773154209999
Otoucalofa Creek Y-15-1 Dam,Calhoun_MS,MS,34.1306330516,-89.38683299629999
Pelucia Watershed Structure Y-33A-14 Dam,Carroll_MS,MS,33.4901540451,-90.0186415517
Persimmon Creek Structure Y-21-09 Dam,Calhoun_MS,MS,34.016400701799995,-89.33805549889999
Piney Woods Lake Dam,Rankin_MS,MS,32.0670928104,-89.9986014766
Potacocawa Watershed Structure Y-31A-04 Dam,Carroll_MS,MS,33.6443097919,-89.9655315511
Potacocawa Watershed Structure Y-31A-06 Dam,Carroll_MS,MS,33.6335526385,-89.9434590476
Potacocawa Watershed Structure Y-31A-12 Dam,Carroll_MS,MS,33.6157348678,-89.86343213190001
Prairie Waters Number 2 Dam,Lowndes_MS,MS,33.470026022199995,-88.5437738251
R N Van Vulpen Pond Dam,Desoto_MS,MS,34.9392956704,-90.0574222707
Rainbow Lakes # 1 Dam,Lauderdale_MS,MS,32.4115600747,-88.5914793886
Rainbow Lakes # 4 Dam,Lauderdale_MS,MS,32.4172709452,-88.5932088178
Rainbow Lakes # 5 Dam,Lauderdale_MS,MS,32.4181367947,-88.5911136242
Reagan Lake Dam,Lafayette_MS,MS,34.27925,-89.37108
Regency Estates Lake Dam,Hinds_MS,MS,32.14014,-90.37719
Richland Creek Ws Str 2A Dam,Rankin_MS,MS,32.2583690175,-89.93789818299999
Richland Creek Ws Str 3 Dam,Rankin_MS,MS,32.2479048397,-89.93803973850001
Robin Hood Lake Number 4 Dam,Rankin_MS,MS,32.2012358896,-89.9617520143
Second Creek Ws Str No. 10B Dam,Adams_MS,MS,31.412723700700003,-91.3352554903
Shook Lake Dam,Lee_MS,MS,34.10393,-88.6163888888889
Simpson Lake Dam,Tate_MS,MS,34.664272240900004,-89.83888460879999
South Lake Dam,Lowndes_MS,MS,33.5438429769,-88.41240218850001
Southfork Lake Dam,Tate_MS,MS,34.5819938236,-89.96366324510001
Southlakes Pond Dam,Grenada_MS,MS,33.71315,-89.79251
Sowashee Creek Ws Str 11 Dam,Lauderdale_MS,MS,32.4157681932,-88.63497868430001
Sportsman Lake Dam,Perry_MS,MS,31.333749267600002,-89.0542406516
Spring Lake Dam,Hinds_MS,MS,32.3622187347,-90.32714885719999
Tidwell Dam,Warren_MS,MS,32.243333333333304,-90.84277777777781
Tippah River Ws Str Lt-7-05 Dam,Benton_MS,MS,34.779376743,-89.1747022366
Tippah River Ws Str Lt-7-07 Dam,Benton_MS,MS,34.708611111111104,-89.0941666666667
Town Creek Ws Str 16 Dam,Lee_MS,MS,34.4653159658,-88.75767537610001
Town Creek Ws Str 19 Dam,Union_MS,MS,34.4559753201,-88.8362583752
Trace State Park Dam,Pontotoc_MS,MS,34.2423593152,-88.8958189651
Tuscumbia Ws Str 39 Dam,Prentiss_MS,MS,34.7459813463,-88.5924396272
Tuscumbia Ws Str Number 34 Dam,Prentiss_MS,MS,34.6949040127,-88.50049924059999
Tuscumbia Ws Str Number 36 Dam,Prentiss_MS,MS,34.6945401131,-88.5916357575
Tuscumbia Ws Str Number 8 Dam,Alcorn_MS,MS,34.8628966163,-88.48601035709999
Upper Tippah Watershed Structure Lt-6-17 Dam,Tippah_MS,MS,34.786137162399996,-89.04651799530001
Upper Yocona Watershed Structure Y-14-01 Dam,Lafayette_MS,MS,34.341556766,-89.2910430026
W J Morris Pond Dam,Lamar_MS,MS,31.3214188552,-89.3905920508
Wanita Mann Pond Dam,Desoto_MS,MS,34.948494205,-90.09017486350001
West Lake Dam,Lamar_MS,MS,31.308721138699998,-89.36649534799999
Basin Creek Dam #2,Silver Bow_MT,MT,45.8393,-112.5261
Blixit Creek,Missoula_MT,MT,46.8568619990586,-113.638414905574
Eureka Reservoir Dam,Teton_MT,MT,47.8784,-112.3178
Fred Burr Reservoir Dam,Ravalli_MT,MT,46.3576,-114.3164
Jordan Dam,Park_MT,MT,46.0988094345788,-110.642727002015
Kootenai Dvlpmnt Impoundment Dam,Lincoln_MT,MT,48.4423597826716,-115.42585320959999
Lakeside,Yellowstone_MT,MT,45.748632,-108.733899
Lower Willow Creek Dam,Granite_MT,MT,46.5592,-113.314
Powell,Powell_MT,MT,46.3544,-112.8494
Willow Creek Dam,Madison_MT,MT,45.7138,-111.6997
Wilson (Judith Basin),Judith Basin_MT,MT,47.155151000000004,-110.359342
Al Beshears Dam,Wilkes_NC,NC,36.25472,-81.34389
Albemarle Dam,Cleveland_NC,NC,35.2119,-81.3555
Alberty Dam,Surry_NC,NC,36.321670000000005,-80.71833000000001
Ammons Lake Dam Upper,Wake_NC,NC,35.8817,-78.6701
Arboretum Townhouse Dam,Forsyth_NC,NC,36.1264,-80.0577
Arran Lakes Dam,Cumberland_NC,NC,35.029,-78.98100000000001
Ashe Lake Dam,Ashe_NC,NC,36.344,-81.444
Atkins Dam,Harnett_NC,NC,35.544914,-78.816877
Beaty Dam,Mecklenburg_NC,NC,35.5081,-80.8456
Beauchamp Lake Dam,Forsyth_NC,NC,36.098,-80.374
Bennetts Bridge Upper North,Duplin_NC,NC,35.0772,-77.9072
Bennetts Bridge Upper South,Duplin_NC,NC,35.0764,-77.9085
Blanchard Dam #4,Harnett_NC,NC,35.32262,-79.04241999999999
Blanchard Lake Dam #1,Harnett_NC,NC,35.325,-79.06028
Blanchard Lake Dam #2,Harnett_NC,NC,35.32333,-79.06028
Blanchard Lake Dam #3,Harnett_NC,NC,35.32306,-79.05889
Blowing Rock Cntry Club Dam,Watauga_NC,NC,36.12611,-81.66667
Blue Dam,Surry_NC,NC,36.417,-80.65899999999999
Boy Scouts Of America Dam Upper,Moore_NC,NC,35.33636,-79.55949
Brookberry Farm Lake Dam West,Forsyth_NC,NC,36.109,-80.373
Brown Lake Dam,Johnston_NC,NC,35.594,-78.237
Browns Lake Dam,Macon_NC,NC,35.02738,-83.3064
Cambro Lake Dam,Harnett_NC,NC,35.294000000000004,-78.904
Camp Pond Dam,Wake_NC,NC,35.83167,-78.72421999999999
Capps Pond Dam,Buncombe_NC,NC,35.44682,-82.50149
Carolina Country Club Dam,Wake_NC,NC,35.8225,-78.65361999999999
Carpenter Dam,Surry_NC,NC,36.479440000000004,-80.69917
Cedar Lodge Dam Lower,Davidson_NC,NC,35.841409999999996,-80.08434
Charles Harris Dam,Ashe_NC,NC,36.3882,-81.2471
Chicken Springs Dam,Rowan_NC,NC,35.6885,-80.4464
Clouse Lake Dam,Yancey_NC,NC,35.92432,-82.24899
Creeson Lake Dam,Forsyth_NC,NC,36.16158,-80.25143
Crimmins Dam,Swain_NC,NC,35.430209999999995,-83.54767
Devonwood Lower Dam,Cumberland_NC,NC,35.075,-78.995
Ed Wilkins Dam,Rockingham_NC,NC,36.32611,-79.69389
Edens Lake,Cumberland_NC,NC,35.076,-78.984
Fakhoury Dam,Madison_NC,NC,35.80368,-82.54774
Fishers Lake Dam,Haywood_NC,NC,35.5106,-82.8167
Flint Ridge Dam,Orange_NC,NC,36.054,-79.105
Forest Lake Dam,Alamance_NC,NC,36.108000000000004,-79.281
Frischholz Dam,Swain_NC,NC,35.41055,-83.53017
Gables Drive Dam,Cumberland_NC,NC,35.1101,-78.8896
Gambill Lake Dam Middle,Forsyth_NC,NC,36.156,-80.366
Gambill Pond Dam Lower,Forsyth_NC,NC,36.153059999999996,-80.36471999999999
Gates Pond,Johnston_NC,NC,35.4538,-78.4023
Glossons Lake Dam #2,Davidson_NC,NC,35.78748,-80.3208
Green Hill Lake Dam,Surry_NC,NC,36.552,-80.632
Haddon Hall Upper Dam,Wake_NC,NC,35.7385,-78.8574
Hamilton Lake Dam,Harnett_NC,NC,35.5489,-78.8151
Hanging Rock State Park Dam,Stokes_NC,NC,36.391999999999996,-80.26899999999999
Hannas Lake Dam,Harnett_NC,NC,35.316,-78.5978
Henry River Dam,Burke_NC,NC,35.69393,-81.42684
Hideaway Bay Dam,Mecklenburg_NC,NC,35.2185,-80.7425
Hillcrest Towne Center Pond B Dam,Forsyth_NC,NC,36.0553,-80.324
Hillcrest Towne Center Pond E Dam,Forsyth_NC,NC,36.0557,-80.3274
Hoffner Lake Dam,Davie_NC,NC,35.817,-80.509
Holden Dam,Caldwell_NC,NC,35.9195,-81.6462
Horseshoe Pond Dam,Lincoln_NC,NC,35.512890000000006,-81.23066
J.J. Pointer Dam,Caswell_NC,NC,36.494,-79.175
James Wright Pond Dam,Johnston_NC,NC,35.54278,-78.56667
Janita Lake Dam Upper,Forsyth_NC,NC,36.035,-80.28971999999999
Jerry Clinard Lake Dam,Davidson_NC,NC,35.9002,-80.1342
Johns Lake Dam,Scotland_NC,NC,34.687,-79.433
Johnson Pond Dam,Wake_NC,NC,35.814,-78.28399999999999
Jones Dam,Caswell_NC,NC,36.45833,-79.28971999999999
Jones Pond Dam,Wake_NC,NC,35.57111,-78.79666999999999
Joyner Lake Dam,Forsyth_NC,NC,36.125,-80.11083
Kaymoore Dam,Forsyth_NC,NC,36.0126,-80.2776
Kernersville Water Supply Dam,Forsyth_NC,NC,36.15448,-80.10058000000001
Lake Charles Dam,Buncombe_NC,NC,35.47834,-82.25362
Lake Charles Dam,Cumberland_NC,NC,34.965,-78.97800000000001
Lake Evens Dam,Buncombe_NC,NC,35.5367,-82.3297
Lake Falmouth Dam,Forsyth_NC,NC,36.07034,-80.43361999999999
Lake Glenwood Dam,Pitt_NC,NC,35.576,-77.314
Lake Hyco Dam,Person_NC,NC,36.5082,-79.0421
Lakeview Acres Dam,Stokes_NC,NC,36.26389,-80.32
Lasater Mill Pond Dam,Forsyth_NC,NC,36.025999999999996,-80.42
Lewis Lake Dam,Cumberland_NC,NC,35.21889,-78.89056
Little Yadkin River W/S Dam #25,Stokes_NC,NC,36.341390000000004,-80.34194000000001
Loch Lommond,Cumberland_NC,NC,35.07,-78.998
Longleaf Golf Course Dam,Moore_NC,NC,35.211,-79.4186
Lott Dam,Swain_NC,NC,35.30584,-83.60356
Lunsford Dam,Caswell_NC,NC,36.343059999999994,-79.50972
Lupo Lake Dam,Hoke_NC,NC,34.9925,-79.1403
Mallard Lake Dam Lower,Forsyth_NC,NC,36.18439,-80.32682
Mallard Lake Dam Upper,Forsyth_NC,NC,36.188,-80.322
Mallard Lake Dam Upper West,Forsyth_NC,NC,36.1879,-80.32554
Maple Lane Fish Pond Dam,Burke_NC,NC,35.72394,-81.4627
Marshall Pond #2,Wake_NC,NC,35.94,-78.5072
Mcgee Dam,Union_NC,NC,35.0177,-80.7532
Mcneil Lake Dam,Moore_NC,NC,35.222570000000005,-79.27673
Melva Brook Pond Lower Dam,Sampson_NC,NC,34.9574,-78.26904
Meredith College Dam,Wake_NC,NC,35.7971,-78.6851
Miller Dam,Wilkes_NC,NC,36.183609999999994,-80.90889
Mirror Lake Dam,Cumberland_NC,NC,35.05444,-78.92222
Moonshine Mountain Rd Dam,Yancey_NC,NC,35.95261,-82.28394
Moore'S Dam,Buncombe_NC,NC,35.54047,-82.41252
Moss Lake Dam,Cleveland_NC,NC,35.275999999999996,-81.457
Mt.Vernon Estates,Cumberland_NC,NC,34.853,-78.876
Myrick Lake Dam,Wake_NC,NC,35.783,-78.485
Nc Hwy 11/903 Dam,Duplin_NC,NC,35.006,-77.9107
New Hope Fishing Lake East,Iredell_NC,NC,35.97722,-80.94221999999999
New Hope Fishing Lake West,Iredell_NC,NC,35.97722,-80.94360999999999
Old Mill Lake Dam,Caldwell_NC,NC,35.80055,-81.41104
Old Stony Creek Dam,Alamance_NC,NC,36.1281,-79.4061
Owens Dam,Guilford_NC,NC,35.983000000000004,-79.961
Paradise Point Dam,Gaston_NC,NC,35.185,-81.05
Pied Piper Dam Lower,Cherokee_NC,NC,35.028890000000004,-84.19806
Pied Piper Dam Upper,Cherokee_NC,NC,35.03001,-84.19614
Pine Creek Dam,Jackson_NC,NC,35.1903,-83.1464
Pine Knoll Dam,Wake_NC,NC,35.8269,-78.59
Pinehurst National-Dam #1,Moore_NC,NC,35.18861,-79.44360999999999
Porter Dam,Buncombe_NC,NC,35.74667,-82.62873
Price Dam,Guilford_NC,NC,36.1145,-79.8623
Price Pond Dam,Hoke_NC,NC,35.1029,-79.3783
Pritchard Dam,Cumberland_NC,NC,35.085,-78.94
Rayconda Upper Dam,Cumberland_NC,NC,35.0267,-79.0222
Rhodes Lake Dam,Cumberland_NC,NC,35.2258,-78.6528
River Road Dam,Montgomery_NC,NC,35.3607,-80.0404
Roddy Dam,Buncombe_NC,NC,35.6984,-82.5901
Roth Dam,Guilford_NC,NC,35.976,-79.843
Sapona Country Club Dam,Davidson_NC,NC,35.8118,-80.3135
Sapphire Valley Golf Course Dam,Jackson_NC,NC,35.11696,-83.03196
Schmehl Dam,Swain_NC,NC,35.43935,-83.36773000000001
Schmidt Pond Dam,Buncombe_NC,NC,35.45986,-82.57884
Scott-Harris Dam,Surry_NC,NC,36.33778,-80.65639
Scull Lake Dam,Hoke_NC,NC,35.03667,-79.14361
Senecal Dam,Cherokee_NC,NC,35.08765,-84.25823000000001
Shealy Lake Dam Upper,Henderson_NC,NC,35.29981,-82.49424
Shelton Lake Dam,Forsyth_NC,NC,36.135999999999996,-80.381
Sherman Lakes Lower,Harnett_NC,NC,35.546811,-78.816919
Sherman Lakes Upper,Harnett_NC,NC,35.547294,-78.819061
Simpson Lake Dam,Moore_NC,NC,35.191,-79.143
Skomp Dam,Cherokee_NC,NC,35.013020000000004,-84.08935
Somerton Lake Dam,Alamance_NC,NC,36.08194,-79.50972
Stafford Pond Dam,Sampson_NC,NC,34.7731,-78.3293
Straus Pond Dam,Buncombe_NC,NC,35.56306,-82.36
Strickland Bridge Dam,Cumberland_NC,NC,35.0087,-79.0214
Summertime Dam,Cumberland_NC,NC,35.06667,-78.93666999999999
Sunnyside Lake Dam,Rutherford_NC,NC,35.313,-81.927
Tallywood Dam,Cumberland_NC,NC,35.051,-78.931
The Lakes Dam,Cumberland_NC,NC,35.074,-78.98
Tredmont Lake Dam,Alamance_NC,NC,35.86139,-79.39972
Tucker Dam,Davidson_NC,NC,35.851420000000005,-80.05398000000001
Tull Millpond Dam,Lenoir_NC,NC,35.155,-77.734
Underwood Dam,Wake_NC,NC,35.738890000000005,-78.62083
Upper Tanglewood Dam,Cherokee_NC,NC,35.11861,-84.02528000000001
W. S. Jones Lake,Macon_NC,NC,35.2174,-83.2548
Walden Two Dam,Mecklenburg_NC,NC,35.2153,-80.6607
Wall Lake Dam,Forsyth_NC,NC,36.241,-80.305
Wall Lake Dam,Richmond_NC,NC,34.8705,-79.8272
Warren Dam,Gaston_NC,NC,35.342420000000004,-81.08516999999999
Weatherspoon 1979 Ash Pond,Robeson_NC,NC,34.5913,-78.9693
Welborn Dam,Guilford_NC,NC,35.919000000000004,-79.93
Weston #1,Wake_NC,NC,35.698890000000006,-78.61556
Weston #2,Wake_NC,NC,35.69815,-78.61673
White Lake Dam,Harnett_NC,NC,35.41,-78.832
White Oak Lake Dam,Wake_NC,NC,35.77535,-78.71388
Widenhouse Dam,Swain_NC,NC,35.44593,-83.4066
Williams Millpond Dam,Wayne_NC,NC,35.187,-77.984
Williams-Johnson Pond Dam,Wake_NC,NC,35.834,-78.654
Willow Lake Estates,Rutherford_NC,NC,35.347590000000004,-82.01026999999999
Winston Lake Dam,Forsyth_NC,NC,36.113,-80.20100000000001
Woodlake Dam,Moore_NC,NC,35.218,-79.19
Woodrow Allen Dam,Mecklenburg_NC,NC,35.20944,-80.64471999999999
Woodview Lake Dam-Lower,Forsyth_NC,NC,36.191,-80.347
Wooten Pond Dam,Wake_NC,NC,35.876999999999995,-78.66
Yanceyville Water Supply Dam,Caswell_NC,NC,36.391999999999996,-79.35
Beach Dam,Golden Valley_ND,ND,46.913909999999994,-104.01548000000001
Clausen Springs Dam,Barnes_ND,ND,46.68322,-98.03687
Jackman Coulee Dam 2,Burleigh_ND,ND,46.820859999999996,-100.8034
Maple River Dam (T-180),Cass_ND,ND,46.67137,-97.44321
Matejcek Dam,Walsh_ND,ND,48.22566,-97.92771
Mcgregor Dam,Williams_ND,ND,48.588,-102.932
Mott Watershed Dam,Hettinger_ND,ND,46.38024,-102.3259
Olson Dam,Pembina_ND,ND,48.73043,-97.94663
Queen City Dam,Stark_ND,ND,46.87409,-102.82419
Senator Young Dam,Cavalier_ND,ND,48.75204,-98.01825
Tioga Dam,Williams_ND,ND,48.40695,-102.9319
Brule Creek 1-A,Keith_NE,NE,41.1128671,-101.9112172
Little Indian Creek 15-A,Gage_NE,NE,40.40838624,-96.75511540000001
North Oak Creek 1-A,Lancaster_NE,NE,41.03408966,-96.83708554
Plum Creek 4-F,Pawnee_NE,NE,40.12971291,-96.38599426
Spring Creek 19-B,Dawson_NE,NE,41.01381307,-100.0157332
Upper Salt Creek 3-A,Lancaster_NE,NE,40.61041486,-96.7255682
Alton Power Dam,Belknap_NH,NH,43.4577,-71.2308
Babbidge Reservoir Dam,Cheshire_NH,NH,42.9338,-72.2202
Bow Lake Dam,Strafford_NH,NH,43.2413,-71.1525
Chesham Pond Dam,Cheshire_NH,NH,42.9376,-72.1386
Cheshire Mills Lower Dam,Cheshire_NH,NH,42.9444,-72.0926
Childs Bog Dam,Cheshire_NH,NH,42.9518,-72.1235
Corcoran Pond Dam,Grafton_NH,NH,43.95,-71.5047
Dells Pond Outlet Dam,Grafton_NH,NH,44.3122,-71.7977
Exeter Reservoir Dam,Rockingham_NH,NH,42.9872,-70.9331
Goffstown Upper Reservoir Dam,Hillsborough_NH,NH,42.9944,-71.5958
Gregg Lake Dam,Hillsborough_NH,NH,43.0391,-71.9786
Grist Mill Pond Dam,Grafton_NH,NH,43.6947,-71.63
Highland Lake Dam,Cheshire_NH,NH,43.0792,-72.0933
Howe Reservoir Dam,Cheshire_NH,NH,42.9267,-72.1298
Jackman Reservoir Dam,Hillsborough_NH,NH,43.1108,-71.9486
Lower Damon Reservoir Dam,Cheshire_NH,NH,42.7239,-72.0796
Lower Reservoir Dam,Grafton_NH,NH,43.7197,-72.2494
Macallen Dam,Rockingham_NH,NH,43.0811,-70.9347
Mendums Pond Dam,Rockingham_NH,NH,43.1627,-71.0686
Merrimack River  Right Bank Fdr,Hillsborough_NH,NH,42.7633,-71.4447
Merrymeeting Lake Dam,Strafford_NH,NH,43.4772,-71.1794
Minnewawa Dam,Cheshire_NH,NH,42.9169,-72.1786
Northwood Lake Dam,Merrimack_NH,NH,43.2197,-71.2911
Pawtuckaway Lake Dollof Dam,Rockingham_NH,NH,43.0726,-71.15100000000001
Pemigewasset River Levee,Grafton_NH,NH,44.0468,-71.66199999999999
Penacook Lake Dam,Merrimack_NH,NH,43.2425,-71.5765
Pickpocket Dam,Rockingham_NH,NH,42.9699,-71.0012
Pine Mill Dam,Grafton_NH,NH,44.0876,-72.0237
Pittsfield Mill Dam,Merrimack_NH,NH,43.3055,-71.3311
Sawyers Mill Lower Dam,Strafford_NH,NH,43.1783,-70.875
Squam Lake Dam,Grafton_NH,NH,43.7052,-71.6297
Suncook Lake Dam,Belknap_NH,NH,43.3597,-71.2666
Taylor River Pond Dam,Rockingham_NH,NH,42.9322,-70.8641
Uncanoonuc Lake Dam,Hillsborough_NH,NH,42.9888,-71.5772
Upper Kimball Pond Dam,Carroll_NH,NH,44.0972,-71.0069
Upper Wilson Pond Dam,Cheshire_NH,NH,42.9086,-72.2577
Whites Pond Dam And Dike,Merrimack_NH,NH,43.3019,-71.3175
Alto Lake Dam,Lincoln_NM,NM,33.3961,-105.6714
Anthony Arroyo Dam No. 1,Dona Ana_NM,NM,32.0036,-106.5799
Apache Brazito Mesquite Dam No. 1,Dona Ana_NM,NM,32.2272,-106.6962
Apache Brazito Mesquite Dam No. 2,Dona Ana_NM,NM,32.1924,-106.671
Apache Brazito Mesquite Dam No. 3,Dona Ana_NM,NM,32.17792,-106.66114099999999
Apache Brazito Mesquite Dam No. 4,Dona Ana_NM,NM,32.1596,-106.6518
Bear Canyon Dam,Grant_NM,NM,32.883109999999995,-107.99236
Breedlove Flood Control Dam,Dona Ana_NM,NM,32.045,-106.5921
Caballo Arroyo Dam No. 1,Sierra_NM,NM,32.86861,-107.28602
Caballo Arroyo Dam No. 2,Dona Ana_NM,NM,32.7634,-107.26100000000001
Caballo Arroyo Dam No. 3,Dona Ana_NM,NM,32.716198999999996,-107.20724799999999
Cabresto Dam,Taos_NM,NM,36.7462,-105.4991
Carson Dam,Taos_NM,NM,36.4212,-105.8343
Cimarroncito Dam,Colfax_NM,NM,36.48141,-105.05463
Cottonwood-Walnut Site #6,Eddy_NM,NM,32.922134,-104.571893
County Line Detention Dam,Sierra_NM,NM,32.78141,-107.26561000000001
Crow Broad Placitas Dam No. 1,Dona Ana_NM,NM,32.5314,-106.9936
Crow Broad Placitas Dam No. 2A,Dona Ana_NM,NM,32.715070000000004,-107.27812
Dona Ana Site 1,Dona Ana_NM,NM,32.3914,-106.7987
Fillmore Site 1 Dam,Dona Ana_NM,NM,32.252386,-106.710858
Gardner Dam,Dona Ana_NM,NM,31.902128,-106.68528799999999
Green Canyon Dam,Sierra_NM,NM,32.80746,-107.27861000000001
Hackberry Draw Site No. 2 Dam,Eddy_NM,NM,32.413810999999995,-104.30820600000001
Hatch Valley Arroyo Dam No. 1,Dona Ana_NM,NM,32.723936,-107.22899299999999
Hatch Valley Arroyo Dam No. 2,Dona Ana_NM,NM,32.7175,-107.2099
Hatch Valley Arroyo Dam No. 6,Dona Ana_NM,NM,32.760958,-107.247123
Hatch Valley Arroyos Dam No. 3,Dona Ana_NM,NM,32.701855,-107.199047
Hatch Valley Arroyos Dam No. 4,Dona Ana_NM,NM,32.683683,-107.088917
Hatch Valley Arroyos Dam No. 5,Dona Ana_NM,NM,32.643939,-107.138272
Houston Arroyo Dam,Valencia_NM,NM,34.67865,-106.79121
Jackson Lake Dam,San Juan_NM,NM,36.809,-108.2236
Jaritas Reservoir B Dam,Colfax_NM,NM,36.244,-104.3828
Kight Flood Retard Dam,Dona Ana_NM,NM,32.7745,-107.2648
La Luz-Fresnal East Reservoir,Otero_NM,NM,32.97034,-105.93443
La Luz-Fresnal North & South Reservoirs,Otero_NM,NM,32.97287,-105.93351000000001
La Mesilla Site 1 Dam,Rio Arriba_NM,NM,35.957066999999995,-106.061259
Laguna Del Campo Dam,Rio Arriba_NM,NM,36.7138,-106.584
Lake Maloya Dam,Colfax_NM,NM,36.983909999999995,-104.37535
Lauson Arroyo Flood Detention Dam,Dona Ana_NM,NM,32.02858,-106.57746999999999
Lower Nielson Retarding Dam,Cibola_NM,NM,35.251999999999995,-107.9889
Lower Vallecito Dam,Sandoval_NM,NM,35.684877,-106.655054
Lucero Detention Dike,Dona Ana_NM,NM,32.48036,-106.91286000000001
Marie Street Dam,Sierra_NM,NM,33.14181,-107.25344
Mariposa Dam,Bernalillo_NM,NM,35.1564,-106.6947
Mcgaffey Lake Dam,Mckinley_NM,NM,35.3765,-108.5141
Miami Lake Dam No. 2,Colfax_NM,NM,36.3461,-104.8927
Morphy Lake Dam,Mora_NM,NM,35.941379,-105.400474
Picacho North Dam,Dona Ana_NM,NM,32.3536,-106.8548
Picacho South Dam,Dona Ana_NM,NM,32.3447,-106.8593
Porter Whisenhunt Dam,Dona Ana_NM,NM,32.6511,-107.1185
Power Lake Dam,Guadalupe_NM,NM,34.926798,-104.6801
Prop Canyon Site 1 Dam,Cibola_NM,NM,35.266,-107.9958
Prop Canyon Site 2A Dam,Cibola_NM,NM,35.2477,-107.9745
Railroad Dam No.1,Guadalupe_NM,NM,34.955659999999995,-104.65793000000001
Railroad Dam No.2,Guadalupe_NM,NM,34.955659999999995,-104.64568
Ramah Dam,Mckinley_NM,NM,35.1452,-108.4897
Rc&D Project Measure 83 Dam,Taos_NM,NM,36.404331,-105.562354
Running Water Draw Site 1 Dam,Curry_NM,NM,34.518,-103.1495
San Mateo Lake Dam,Cibola_NM,NM,35.3237,-107.6338
Sand Hill Arroyo Dam,Dona Ana_NM,NM,32.38074,-106.74088
Santa Cruz Site 1 Dam,Rio Arriba_NM,NM,36.0102,-105.9184
Santa Cruz Site 2G Dam,Rio Arriba_NM,NM,36.0145,-105.9354
Santa Cruz Site 3 Dam,Rio Arriba_NM,NM,36.0189,-105.9604
Santa Cruz Site 3A Dam,Rio Arriba_NM,NM,36.02,-105.9542
Santa Cruz Site 5 Dam,Rio Arriba_NM,NM,36.0028,-105.9875
Santa Cruz Site 6 Dam,Santa Fe_NM,NM,35.9769,-105.9847
Sebastian Martin Bm 1 Dam,Rio Arriba_NM,NM,36.083046,-106.084799
Sebastian Martin Site 18 Dam,Rio Arriba_NM,NM,36.09276,-106.0376
Sebastian Martin Site 4 Dam,Rio Arriba_NM,NM,36.1041,-106.071393
Sebastian Martin Site 5 Dam,Rio Arriba_NM,NM,36.108268,-106.06648100000001
Sebastian Martin Site 6 Dam,Rio Arriba_NM,NM,36.1127,-106.0602
Sibley Green Site 4,Sierra_NM,NM,32.75874,-107.34754
Sibley Green Site 5,Sierra_NM,NM,32.74635,-107.32686000000001
Spring Canyon Dam,Dona Ana_NM,NM,32.64028,-107.15766
Springer Dam No. 2,Colfax_NM,NM,36.3929,-104.6153
St. Anne'S Dam,Sierra_NM,NM,33.14059,-107.24337
T Or C Site 8C Dam,Sierra_NM,NM,33.12661,-107.30431000000002
Thirtieth Street Dam,San Juan_NM,NM,36.756,-108.17299999999999
Throttle Dam No. 2,Colfax_NM,NM,36.8272,-104.2274
Tortugas Site 1 Dam,Dona Ana_NM,NM,32.291270000000004,-106.72765
Tortugas Site 2 Dam,Dona Ana_NM,NM,32.270635,-106.74238899999999
Upper Gila Valley Site No. 1 Dam,Grant_NM,NM,32.966801000000004,-108.56406899999999
Upper Gila Valley Site No. 10 Dam,Grant_NM,NM,33.00953,-108.57437
Upper Gila Valley Site No. 11 Dam,Grant_NM,NM,33.00724,-108.59623300000001
Upper Gila Valley Site No. 12 Dam,Grant_NM,NM,32.97918,-108.59953999999999
Upper Gila Valley Site No. 3 Dam,Grant_NM,NM,32.979925,-108.561581
Upper Gila Valley Site No. 4 Dam,Grant_NM,NM,32.990804,-108.55191200000002
Upper Gila Valley Site No. 6 Dam,Grant_NM,NM,33.003917,-108.53058999999999
Upper Gila Valley Site No. 7 Dam,Grant_NM,NM,33.024941999999996,-108.550102
Upper Gila Valley Site No. 8 Dam,Grant_NM,NM,33.019935,-108.55843
Upper Gila Valley Site No. 9 Dam,Grant_NM,NM,33.0176,-108.5636
Upper Penasco Site 1,Otero_NM,NM,32.8428,-105.56631000000002
Upper Penasco Site 2,Otero_NM,NM,32.86345,-105.50638000000001
Upper Penasco Site 3A,Otero_NM,NM,32.88306,-105.49196
Upper Rio Hondo Site No. 1 Dam,Lincoln_NM,NM,33.533989,-105.48016799999999
Ute Creek Dam,Colfax_NM,NM,36.579957,-105.122545
Webster Dam,Colfax_NM,NM,36.48253,-105.01102
Cave Creek Dam,White Pine_NV,NV,39.1897,-114.7
D'Andrea Detention Basin #1,Washoe_NV,NV,39.555,-119.69200000000001
D'Andrea Ranch Hole #6 Pond,Washoe_NV,NV,39.556,-119.699
Eldorado Canyon Dam,Lyon_NV,NV,39.2055,-119.564
Greil Dam,Washoe_NV,NV,39.2468,-119.75200000000001
Herman Dam,Washoe_NV,NV,39.5481,-119.825
Home Ranch Canyon Dam,Washoe_NV,NV,39.715,-119.50399999999999
Incline Lake Dam,Washoe_NV,NV,39.2931,-119.927
Pagni Dam,Washoe_NV,NV,39.3385,-119.79299999999999
Sevier Lake,Washoe_NV,NV,41.7584,-119.884
Sheep Camp Detention Dam,Lyon_NV,NV,39.2708,-119.59299999999999
Smith Creek Dam,Lander_NV,NV,39.384,-117.63600000000001
Spring Creek Dam #1,Elko_NV,NV,40.7417,-115.571
Verdi Meadows Wastewater Disposal Dam,Washoe_NV,NV,39.5276,-119.97200000000001
Altiers Lake Dam,Perry_OH,OH,39.6511111111111,-82.0963888888889
Amicks Upground Reservoir,Morrow_OH,OH,40.7055555555556,-82.8227777777778
Apple Valley Lake Dam,Knox_OH,OH,40.4194444444444,-82.3430555555556
Artesian Lake Dam,Ashland_OH,OH,40.815,-82.3225
Ashtabula County Outdoor Club Lake Dam,Ashtabula_OH,OH,41.8763888888889,-80.71055555555559
Athens Fish And Game Club Lake Dam,Athens_OH,OH,39.300833333333294,-82.27472222222221
Ballville Dam,Sandusky_OH,OH,41.3263888888889,-83.1363888888889
Barnesville Lake Dam,Belmont_OH,OH,39.9986111111111,-81.18194444444441
Barnesville Reservoir No. 2 Dam,Belmont_OH,OH,39.970833333333296,-81.1561111111111
Bellevue Upground Reservoir No. 1,Huron_OH,OH,41.268333333333295,-82.8266666666667
Bellevue Upground Reservoir No. 3,Huron_OH,OH,41.27,-82.825
Bellevue Upground Reservoir No. 4,Huron_OH,OH,41.261666666666706,-82.8233333333333
Belmont Hills Country Club Lake Dam,Belmont_OH,OH,40.0638888888889,-80.9433333333333
Blanchester Reservoir No. 3 Dam,Clinton_OH,OH,39.287222222222205,-83.9783333333333
Blanchester Reservoir No. 4 Dam,Clinton_OH,OH,39.286111111111104,-83.9711111111111
Briarwood Sportsman'S Club No. 11 Dam,Logan_OH,OH,40.3638888888889,-83.69944444444441
Brightwood Lake Dam,Lake_OH,OH,41.6783333333333,-81.2694444444444
Brimfield Lake Dam,Portage_OH,OH,41.0927777777778,-81.3566666666667
Brye Lake Dam,Medina_OH,OH,41.0533333333333,-81.7438888888889
Bucyrus Reservoir No. 1 Dam,Crawford_OH,OH,40.8269444444444,-82.9380555555556
Bucyrus Reservoir No. 3 Dam,Crawford_OH,OH,40.827222222222204,-82.9333333333333
Camp Greenwood Lake Dam,Delaware_OH,OH,40.309722222222206,-83.05555555555559
Camp Whitewood Lake Dam,Ashtabula_OH,OH,41.52722222222221,-80.9661111111111
Cedarville Upground Reservoir,Greene_OH,OH,39.7411111111111,-83.815
Chateau Lakes No. 2 Dam,Hamilton_OH,OH,39.1883333333333,-84.6466666666667
Clark Lake Dam,Clark_OH,OH,39.948333333333295,-83.66
Clear Fork Reservoir Dam,Richland_OH,OH,40.6980555555556,-82.6063888888889
Comet Lake Dam,Summit_OH,OH,40.922777777777796,-81.5258333333333
Crooksville Reservoir No. 1 Dam,Morgan_OH,OH,39.7611111111111,-82.0472222222222
Crooksville Reservoir No. 2 Dam,Morgan_OH,OH,39.764722222222204,-82.04333333333331
Dale Walborn Reservoir Dam,Stark_OH,OH,40.973055555555604,-81.17777777777779
Deer Lake Dam,Muskingum_OH,OH,39.8811111111111,-82.1013888888889
Delta Reservoir No. 1,Fulton_OH,OH,41.589444444444396,-84.0122222222222
East Reservoir Dam,Summit_OH,OH,41.0011111111111,-81.5316666666667
Echo Lake Dam,Miami_OH,OH,40.1561111111111,-84.2602777777778
Fayetteville High School Lake Dam,Brown_OH,OH,39.183888888888895,-83.9283333333333
Forest Hill Park Dam No. 2,Cuyahoga_OH,OH,41.5208333333333,-81.5786111111111
Forked Run Lake Dam,Meigs_OH,OH,39.091666666666704,-81.7677777777778
Franz Pond Dam,Miami_OH,OH,40.151666666666706,-84.2583333333333
Galley Hill Lake Dam,Clermont_OH,OH,39.1388888888889,-84.1991666666667
Gorge Plant Dam,Summit_OH,OH,41.1230555555556,-81.4972222222222
Grand Lake St. Marys - West Embankment,Mercer_OH,OH,40.535,-84.5733333333333
Greenwich Reservoir Dam,Huron_OH,OH,41.026388888888896,-82.5158333333333
Hammertown Lake Dam,Jackson_OH,OH,39.0563888888889,-82.6847222222222
Hargus Lake Dam,Pickaway_OH,OH,39.6263888888889,-82.88611111111109
Hickory Hills Park Lake Dam,Portage_OH,OH,41.112777777777794,-81.2183333333333
Highlandtown Lake Dam,Columbiana_OH,OH,40.6377777777778,-80.7486111111111
Hinckley Lake Dam,Medina_OH,OH,41.2263888888889,-81.7202777777778
Hollenbeck Lake Dam,Cuyahoga_OH,OH,41.370833333333294,-81.7436111111111
Hunters Run Structure No. 3,Fairfield_OH,OH,39.699166666666706,-82.65916666666669
Hunters Run Structure R-42,Fairfield_OH,OH,39.738333333333294,-82.745
Indian Lake Dam,Logan_OH,OH,40.4675,-83.8755555555556
Indian Lakes Rec. Area Lower Lake Dam,Guernsey_OH,OH,39.9466666666667,-81.5711111111111
International Animal Preserve Pond Dam #10,Muskingum_OH,OH,39.8369444444444,-81.7333333333333
Izaak Walton Lake Dam,Lawrence_OH,OH,38.6744444444444,-82.58527777777779
Jisco Lake Dam,Jackson_OH,OH,39.0305555555556,-82.6722222222222
Knox Cattle Company Dam,Knox_OH,OH,40.3955555555556,-82.44722222222221
Knox Lake Dam,Knox_OH,OH,40.496388888888895,-82.5266666666667
Lake Alma Dam,Vinton_OH,OH,39.144444444444396,-82.5175
Lake Cable Dam,Stark_OH,OH,40.86,-81.4533333333333
Lake Damascus Dam,Knox_OH,OH,40.345833333333296,-82.66611111111109
Lake Hamilton Dam,Mahoning_OH,OH,41.036666666666704,-80.5925
Lake Lamberjack Upground Reservoir,Hancock_OH,OH,41.1563888888889,-83.43194444444441
Lake Loramie Dam,Shelby_OH,OH,40.3575,-84.3588888888889
Lake Lucerne Dam,Geauga_OH,OH,41.3988888888889,-81.3458333333333
Lake Milton Dam,Mahoning_OH,OH,41.1272222222222,-80.9777777777778
Lake Rockwell Dam,Portage_OH,OH,41.182777777777794,-81.3311111111111
Lake Rupert Dam,Vinton_OH,OH,39.1763888888889,-82.5208333333333
Lake Wapusun Dam,Wayne_OH,OH,40.714166666666706,-82.1133333333333
Lake White Dam,Pike_OH,OH,39.106111111111105,-83.0091666666667
Lilley Lake Dam,Warren_OH,OH,39.3844444444444,-84.1338888888889
Loecy Pond Dam,Geauga_OH,OH,41.5905555555556,-81.215
Long'S Retreat Lake Dam,Pike_OH,OH,39.0872222222222,-83.3183333333333
Lower Jeffco Lake Dam,Ashtabula_OH,OH,41.565,-80.64388888888891
Lower Shaker Lake Dam,Cuyahoga_OH,OH,41.49,-81.58166666666669
Margaret Creek Structure No. 6,Athens_OH,OH,39.3027777777778,-82.1847222222222
Mckelvey Lake Dam,Mahoning_OH,OH,41.105,-80.5944444444444
Mineral Ridge Dam,Trumbull_OH,OH,41.15333333333329,-80.7791666666667
Muskingum College Lake Dam,Muskingum_OH,OH,39.9975,-81.7352777777778
Naji Lake Dam,Ashtabula_OH,OH,41.518333333333295,-80.9836111111111
Nimisila Reservoir Dam,Summit_OH,OH,40.926666666666705,-81.5233333333333
North Reservoir Dam,Summit_OH,OH,41.0055555555556,-81.5508333333333
Old Man'S Cave Lake Dam,Hocking_OH,OH,39.425,-82.53805555555559
Paradise Lakes - North Lake Dam,Preble_OH,OH,39.6119444444444,-84.5086111111111
Paradise Lakes - South Lake Dam,Preble_OH,OH,39.61,-84.5091666666667
Perry Reclamation Dam No. 3,Perry_OH,OH,39.771111111111104,-82.2058333333333
Pine Lake Dam,Logan_OH,OH,40.367777777777796,-83.6977777777778
Pine Lake Estates Dam,Fairfield_OH,OH,39.6613888888889,-82.5977777777778
Pine Valley Sportsmen'S Lake No. 4 Dam,Jefferson_OH,OH,40.2875,-80.8727777777778
Pleasant Valley Lake Dam,Trumbull_OH,OH,41.20722222222221,-80.6761111111111
Powers Upground Reservoir,Crawford_OH,OH,40.7180555555556,-82.8033333333333
Randolph Lake Dam,Lawrence_OH,OH,38.45,-82.5733333333333
Remick Lake Dam,Warren_OH,OH,39.5783333333333,-84.2263888888889
Ridgewood Lake Dam,Medina_OH,OH,41.1280555555556,-81.6891666666667
Rio Grande Reservoir,Gallia_OH,OH,38.8838888888889,-82.3891666666667
Rocky Fork Lake Dam,Highland_OH,OH,39.184166666666705,-83.4394444444444
Ross Lake Dam,Ross_OH,OH,39.334722222222204,-82.9055555555556
Salerno Lake Dam,Medina_OH,OH,41.0905555555556,-81.7983333333333
Sally Buffalo Park Lake Dam,Harrison_OH,OH,40.2586111111111,-81.0075
Sally Buffalo Park Lake No. 2 Dam,Harrison_OH,OH,40.2591666666667,-81.01111111111109
Sally Buffalo Park Lake No. 4 Dam,Harrison_OH,OH,40.2625,-81.0116666666667
San Toy Dam,Perry_OH,OH,39.637222222222206,-82.03944444444441
Schloss Pond Dam,Geauga_OH,OH,41.371666666666705,-81.04
Shreve Lake Dam,Wayne_OH,OH,40.684166666666705,-82.04361111111109
Sleepy Hollow Lake Dam,Tuscarawas_OH,OH,40.28472222222221,-81.4038888888889
Southern Silica Pond No. 1 Dam,Ross_OH,OH,39.1741666666667,-82.8002777777778
Southern Silica Pond No. 2 Dam,Ross_OH,OH,39.1733333333333,-82.7966666666667
Spring Lake Dam,Montgomery_OH,OH,39.8591666666667,-84.1275
Sugarcreek Sportsman Club Lake Dam,Tuscarawas_OH,OH,40.4277777777778,-81.70805555555559
Swan Lake Dam,Summit_OH,OH,41.1263888888889,-81.6833333333333
Swift Run Lake Dam,Miami_OH,OH,40.1763888888889,-84.2633333333333
Timber Lake Liberty Dam,Delaware_OH,OH,40.2136111111111,-83.06555555555559
Turkey Creek Lake Dam,Scioto_OH,OH,38.7333333333333,-83.1894444444444
Tycoon Lake Dam,Gallia_OH,OH,38.9222222222222,-82.3533333333333
Upper Girard Lake Dam,Trumbull_OH,OH,41.1936111111111,-80.69472222222221
Upper Shaker Lake Dam,Cuyahoga_OH,OH,41.4830555555556,-81.5605555555556
Varkony Pond Dam,Harrison_OH,OH,40.315833333333295,-80.91555555555558
Veto Lake Dam,Washington_OH,OH,39.345,-81.6472222222222
Vo-Ash Lake Dam,Carroll_OH,OH,40.4813888888889,-81.0994444444444
Waller Lake Dam,Lawrence_OH,OH,38.507222222222204,-82.5477777777778
Wellston Reservoir Dam,Jackson_OH,OH,39.14,-82.5183333333333
Wellsville Reservoir Dam,Columbiana_OH,OH,40.621111111111105,-80.6933333333333
White Turkey Lake Dam,Ross_OH,OH,39.1961111111111,-82.9897222222222
Woodsfield Reservoir Dam No. 3,Monroe_OH,OH,39.771111111111104,-81.1963888888889
American Fidelity,Oklahoma_OK,OK,35.558433334,-97.50782777799999
Carlton Lake,Latimer_OK,OK,34.976883,-95.360454
Clayton Lake,Pushmataha_OK,OK,34.543021,-95.30881
Fin & Feather,Pittsburg_OK,OK,34.986758894,-95.737953784
Goldco Operating Co,Cleveland_OK,OK,35.36646008,-97.56501106
Hominy Lake,Osage_OK,OK,36.409531,-96.41472900000001
Knight,Oklahoma_OK,OK,35.547894,-97.628201
Orchard,Adair_OK,OK,35.805571,-94.595074
Pawhuska Lake Dam,Osage_OK,OK,36.644591999999996,-96.395225
Sportsmans Club,Oklahoma_OK,OK,35.513428999999995,-97.58597900000001
Summit Lake,Cleveland_OK,OK,35.21758189,-97.40241125
Weleetka,Okfuskee_OK,OK,35.334140999999995,-96.16384000000001
Wewoka,Seminole_OK,OK,35.181326,-96.52689000000001
Barnes Butte Reservoir,Crook_OR,OR,44.326671600000005,-120.82611846
Big Creek Reservoir #1 (Lower),Lincoln_OR,OR,44.65491104,-124.04379272
Crowley Reservoir,Malheur_OR,OR,43.31282043,-117.92700195
Duggan Dam,Jackson_OR,OR,42.47750854,-122.94769287
Ferry Creek,Curry_OR,OR,42.07373809,-124.27144622
Johnson Creek Reservoir (Crook),Crook_OR,OR,44.34186935,-120.75550842
Lake Creek Dam,Jackson_OR,OR,42.37558,-122.62459399999999
Lonesome Lake,Malheur_OR,OR,43.60771942,-117.02690887
Morgan Lake Dam,Union_OR,OR,45.30485153,-118.13696289
Osborne Creek Dam,Jackson_OR,OR,42.415569299999994,-122.65412139
Pole Creek,Malheur_OR,OR,44.25166702,-117.55333709
Wageman,Douglas_OR,OR,43.10406112,-123.59004974
Wallowa Lake Dam,Wallowa_OR,OR,45.33514022,-117.22263336
Willow Creek 3 (Malheur),Malheur_OR,OR,44.35308074,-117.67150115
Woodrat Knob Dam,Jackson_OR,OR,42.40193939,-122.64111328
Anderson Creek,Clearfield_PA,PA,41.09444439999999,-78.6344444
Beaver Lake,Wayne_PA,PA,41.7413889,-75.15611109999999
Beaver Lake,Lycoming_PA,PA,41.2941667,-76.5905556
Beech Mountain Lake,Luzerne_PA,PA,41.0527778,-75.9255556
Bel-Aire Lake,Susquehanna_PA,PA,41.9491667,-75.8655556
Bellwood,Blair_PA,PA,40.6230556,-78.3813889
Belmont,Lackawanna_PA,PA,41.5908333,-75.4808333
Belmont Lake,Wayne_PA,PA,41.768055600000004,-75.4438889
Bernhart,Berks_PA,PA,40.3791667,-75.90777779999999
Boyd Keller Reservoir,Clinton_PA,PA,41.1252778,-77.3386111
Bradys Run,Beaver_PA,PA,40.7308333,-80.35611109999999
Briggs Street Detention,Lackawanna_PA,PA,41.4258333,-75.69888890000001
Brinton Lake,Delaware_PA,PA,39.896944399999995,-75.5411111
Cadjaw Pond,Wayne_PA,PA,41.5616667,-75.2738889
Cambridge Springs,Crawford_PA,PA,41.79361110000001,-80.05333329999999
Canonsburg No 2,Washington_PA,PA,40.2541667,-80.11527779999999
Carbaugh Run,Adams_PA,PA,39.8719444,-77.4502778
Carbondale No 4,Lackawanna_PA,PA,41.5741667,-75.4591667
Chapman,Warren_PA,PA,41.7544444,-79.1725
Cherry Valley,Washington_PA,PA,40.3330556,-80.3316667
Christman,Berks_PA,PA,40.542777799999996,-75.8858333
Craft Pond,Wayne_PA,PA,41.4344444,-75.2844444
Curtis,Lackawanna_PA,PA,41.375,-75.5116667
Dalton Run,Somerset_PA,PA,40.28,-78.9869444
Deer Lake,Schuylkill_PA,PA,40.6213889,-76.05722220000001
Dehart,Dauphin_PA,PA,40.4616667,-76.7452778
Donegal,Westmoreland_PA,PA,40.1455556,-79.3702778
Dunmore No 7 Reservoir,Lackawanna_PA,PA,41.41305560000001,-75.6066667
Earles Lake,Delaware_PA,PA,40.00944439999999,-75.39
Eaton Reservoir,Erie_PA,PA,42.146111100000006,-79.7680556
Ebensburg Storage,Cambria_PA,PA,40.4894444,-78.7175
Edinboro Lake,Erie_PA,PA,41.8730556,-80.13305559999999
Egelman Reservoir,Berks_PA,PA,40.3402778,-75.89527779999999
El-Do Lake,Monroe_PA,PA,40.9580556,-75.5333333
Elmhurst,Lackawanna_PA,PA,41.3705556,-75.5386111
Ethel Springs,Westmoreland_PA,PA,40.3386111,-79.30722220000001
Fawn Lake,Pike_PA,PA,41.2158333,-74.9255556
Glatco Lake,York_PA,PA,39.8408333,-76.9436111
Greenwood Lake,Schuylkill_PA,PA,40.8325,-75.94027779999999
Griffin,Lackawanna_PA,PA,41.4963889,-75.665
Gunter Valley,Franklin_PA,PA,40.1380556,-77.6719444
Hallowood Acres,Monroe_PA,PA,41.0925,-75.1944444
Hankins Pond,Wayne_PA,PA,41.715,-75.39527779999999
Hinckston,Cambria_PA,PA,40.3738889,-78.8877778
Hull Plan Lake,Butler_PA,PA,40.8877778,-79.89527779999999
Huntsville,Luzerne_PA,PA,41.3075,-75.9744444
Indian Creek,Fayette_PA,PA,39.9813889,-79.4555556
Indian Mountain Lake,Monroe_PA,PA,41.0041667,-75.5072222
Indian Run,Berks_PA,PA,40.24055560000001,-75.8180556
Jennings Pond,Wyoming_PA,PA,41.5783333,-76.125
John C Smith,Bedford_PA,PA,40.0347222,-78.52972220000001
Keen Lake,Wayne_PA,PA,41.591666700000005,-75.3727778
Kenda,Westmoreland_PA,PA,40.294444399999996,-79.7283333
Kephart,Centre_PA,PA,40.9183333,-78.0602778
Kintz Creek (Pa-439),Pike_PA,PA,41.2808333,-75.2308333
Kyle,Jefferson_PA,PA,41.158055600000004,-78.8377778
Lake Akiba,Monroe_PA,PA,40.9869444,-75.3725
Lake Carey,Wyoming_PA,PA,41.5819444,-75.9191667
Lake Choctaw,Schuylkill_PA,PA,40.928611100000005,-76.1327778
Lake George,Somerset_PA,PA,40.0602778,-79.2541667
Lake Hamilton,Wayne_PA,PA,41.84861110000001,-75.25138890000001
Lake Heritage,Adams_PA,PA,39.8005556,-77.1925
Lake Heron,Perry_PA,PA,40.6130556,-76.97361109999999
Lake Lattimore,Pike_PA,PA,41.2466667,-74.92527779999999
Lake May (Section F),Adams_PA,PA,39.7413889,-77.3719444
Lake Montrose,Susquehanna_PA,PA,41.845,-75.8591667
Lake Pinecrest,Luzerne_PA,PA,41.1863889,-76.245
Lake Quinn,Wayne_PA,PA,41.508055600000006,-75.42611109999999
Lake Redman,York_PA,PA,39.8972222,-76.71388890000001
Lake Scranton,Lackawanna_PA,PA,41.3822222,-75.6366667
Lake Somerset,Somerset_PA,PA,40.021111100000006,-79.0675
Lake Susquehanna,Schuylkill_PA,PA,40.9288889,-76.12361109999999
Lake Swiftwater,Monroe_PA,PA,41.0988889,-75.2758333
Lake Watawga,Wayne_PA,PA,41.2394444,-75.4447222
Larsen Lake,Lackawanna_PA,PA,41.2519444,-75.4572222
Laurel Run No 2,Luzerne_PA,PA,41.2480556,-75.8175
Laurel Run Reservoir,Elk_PA,PA,41.416388899999994,-78.6036111
Leavitt Branch (Pa-463),Monroe_PA,PA,41.2080556,-75.2475
Lehman Lake,Pike_PA,PA,41.1772222,-75.0022222
Little Pine Creek,Lycoming_PA,PA,41.355277799999996,-77.355
Lower,Fayette_PA,PA,39.9430556,-79.8233333
Lower Alford Lake,Susquehanna_PA,PA,41.8069444,-75.7741667
Lower Mount Pleasant,Luzerne_PA,PA,40.9180556,-76.0238889
Lower Ridge,Westmoreland_PA,PA,40.326111100000006,-79.2872222
Lower Tumbling Run,Schuylkill_PA,PA,40.675,-76.1805556
Lower Woods Pond,Wayne_PA,PA,41.7383333,-75.2705556
Maggio Estate No 2,Lycoming_PA,PA,41.529166700000005,-76.9733333
Marshall Lake,Monroe_PA,PA,41.0438889,-75.1269444
Martin (Pa-419),Wayne_PA,PA,41.57,-75.185
Memorial Lake,Lebanon_PA,PA,40.417777799999996,-76.59222220000001
Middle,Monroe_PA,PA,41.0494444,-75.1786111
Middle Creek,Lancaster_PA,PA,40.266388899999995,-76.23777779999999
Mill Run,Blair_PA,PA,40.5191667,-78.45222220000001
Millers Pond,Bradford_PA,PA,41.9166667,-76.7166667
Minersville No 4,Schuylkill_PA,PA,40.7455556,-76.2805556
Minsi Lake,Northampton_PA,PA,40.911666700000005,-75.16972220000001
Montgomery,Clearfield_PA,PA,41.0308333,-78.5119444
Moose Creek Reservoir,Clearfield_PA,PA,41.055833299999996,-78.4722222
Morris Run No 3,Tioga_PA,PA,41.6897222,-77.0130556
Mount Airy,Monroe_PA,PA,41.1125,-75.31777779999999
Mountain Springs Lake,Monroe_PA,PA,41.01,-75.35611109999999
Negro Pond,Wyoming_PA,PA,41.585,-76.1625
No 5,Lackawanna_PA,PA,41.360555600000005,-75.67
North Fork,Somerset_PA,PA,40.2691667,-79.0038889
North Lake,Pike_PA,PA,41.211111100000004,-74.9544444
Pa-445,Wayne_PA,PA,41.3047222,-75.3508333
Pecks Pond,Pike_PA,PA,41.2808333,-75.08694440000001
Penn Lake,Luzerne_PA,PA,41.1111111,-75.7694444
Penn Nursery,Centre_PA,PA,40.775555600000004,-77.61916670000001
Pikes Creek,Luzerne_PA,PA,41.2658333,-76.045
Pine Run No 1,Luzerne_PA,PA,41.196388899999995,-75.8916667
Pioneer Lake,Indiana_PA,PA,40.7372222,-78.8530556
Placid Lake,Carbon_PA,PA,41.0266667,-75.6133333
Pocono Highlands,Monroe_PA,PA,41.0727778,-75.1075
Reynoldsville Storage #5,Jefferson_PA,PA,41.1077778,-78.8725
Ringtown No 5,Schuylkill_PA,PA,40.8427778,-76.2475
Robert Christman,Monroe_PA,PA,41.0183333,-75.2108333
Rockview Reservoir,Centre_PA,PA,40.8330556,-77.7555556
Rocky Glen,Lackawanna_PA,PA,41.3522222,-75.7044444
Rossiter,Indiana_PA,PA,40.8875,-78.9219444
Ryerson Station,Greene_PA,PA,39.89,-80.4494444
Salt Run Reservoir,Cameron_PA,PA,41.5397222,-78.18638890000001
Sandy Run,Cambria_PA,PA,40.6572222,-78.4719444
Saw Creek Club,Pike_PA,PA,41.1597222,-75.0691667
Shickshinny Lake,Luzerne_PA,PA,41.2061111,-76.1908333
Sonneborn (Witco) Reservoir,Butler_PA,PA,41.014166700000004,-79.72138890000001
Spring Lake,Monroe_PA,PA,41.0102778,-75.1605556
Spring Lake,Susquehanna_PA,PA,41.885,-75.5283333
Sugar Run,Westmoreland_PA,PA,40.376388899999995,-79.0227778
Sweetwater Lake,Monroe_PA,PA,41.028611100000006,-75.1605556
Tamarack Lake A (Pa-461A),Crawford_PA,PA,41.615,-80.1180556
Tobyhanna No 2,Monroe_PA,PA,41.2,-75.40777779999999
Totem Lake,Bradford_PA,PA,41.7605556,-76.2438889
Trout Lake,Monroe_PA,PA,41.0019444,-75.3472222
Union City Reservoir,Erie_PA,PA,41.9127778,-79.815
University Park Airport Pond 1A,Centre_PA,PA,40.8427778,-77.8466667
Upper Birchwood Lake,Pike_PA,PA,41.248611100000005,-74.9147222
Upper Castanea Reservoir,Clinton_PA,PA,41.11555560000001,-77.4219444
Upper Mount Pleasant,Luzerne_PA,PA,40.9213889,-76.0236111
Upper Ridge,Westmoreland_PA,PA,40.3255556,-79.28527779999999
Upper Tumbling Run,Schuylkill_PA,PA,40.6788889,-76.1725
Wangaum Falls,Wayne_PA,PA,41.4927778,-75.2494444
Warren H Ohl,Clinton_PA,PA,41.0736111,-77.32166670000001
Washington No 3,Washington_PA,PA,40.145,-80.2641667
Wilmore,Cambria_PA,PA,40.4091667,-78.6880556
Comerio I Dam,Comerio_PR,PR,18.27,-66.20666999999999
Comerio Ii Dam,Comerio_PR,PR,18.26333,-66.20666999999999
Bridlewood Pond,Providence_RI,RI,41.910312684699996,-71.4589766962
Bridlewood Upper End,Providence_RI,RI,41.91206,-71.46078
Bucklin Point,Providence_RI,RI,41.851924874299996,-71.3656844533
Burlingame Reservoir Upper,Providence_RI,RI,41.9140891811,-71.7423782092
Butterfly Pond,Providence_RI,RI,41.9071121554,-71.4321594247
Carr Pond,Washington_RI,RI,41.5202789277,-71.4445571677
Centerville Pond,Kent_RI,RI,41.6968612671,-71.5210952829
Clarke'S Pond Upper,Providence_RI,RI,41.7368803926,-71.54727131
Cranston Print Works Pond,Providence_RI,RI,41.793464666300004,-71.459709189
Easton Pond South,Newport_RI,RI,41.490493762199996,-71.2868271098
Flat River Reservoir,Kent_RI,RI,41.6944351206,-71.5947265279
Forestdale Pond,Providence_RI,RI,41.996070860900005,-71.5640639717
Grist Mill Apartments,Kent_RI,RI,41.69958,-71.46789
Handy Pond Upper,Providence_RI,RI,41.958702050599996,-71.4723968232
Harrisville Pond,Providence_RI,RI,41.9657402423,-71.6748657084
Hawkins Pond,Providence_RI,RI,41.9182128893,-71.7948227033
Hefler Farm Pond,Washington_RI,RI,41.4547576795,-71.5029907186
Holley Lane Pond,Providence_RI,RI,42.0037,-71.47858000000001
Keech Pond,Providence_RI,RI,41.8843994459,-71.68824006
Limerock Reservoir,Providence_RI,RI,41.9295005918,-71.4680938423
Miscoe Lake,Providence_RI,RI,42.0076522716,-71.417114219
Moffett Pond,Providence_RI,RI,41.9050979537,-71.4251861909
Natick Pond,Kent_RI,RI,41.7173805192,-71.4924010838
Nelson Pond,Newport_RI,RI,41.4913482687,-71.2627640276
Peace Dale Pond,Washington_RI,RI,41.4524116567,-71.49524684229999
Pearce Pond,Kent_RI,RI,41.723659999999995,-71.53926
Rodman Mill,Washington_RI,RI,41.57304075,-71.4866790361
Simmons Lower Reservoir,Providence_RI,RI,41.7911491273,-71.50913243149999
Slack Reservoir,Providence_RI,RI,41.868793517,-71.5532531883
Slatersville Reservoir Middle,Providence_RI,RI,41.9976997076,-71.58184812729999
Slocum Reservoir,Washington_RI,RI,41.539916999,-71.52001184529999
Slocum Road Upper,Washington_RI,RI,41.51794,-71.51246
Westconnaug Reservoir,Providence_RI,RI,41.7722587756,-71.67716974529999
White'S Pond,Washington_RI,RI,41.4703788555,-71.6693954926
Wilbur Pond,Providence_RI,RI,41.9302215611,-71.7644271673
Wilson Reservoir,Providence_RI,RI,41.966152178200005,-71.7223281955
Wyoming Upper,Washington_RI,RI,41.5159225517,-71.7034072926
Yorker Mill Pond,Washington_RI,RI,41.5217064746,-71.523245763
Alton Reservoir,Kane_UT,UT,37.44908186927,-112.4796670644
Jones,Wasatch_UT,UT,40.48518785342,-111.26239485049999
Mountain Dell,Salt Lake_UT,UT,40.752405014370005,-111.72098897629999
Palisades Lake,Sanpete_UT,UT,39.20517332648,-111.67241988059999
Red Pine,Salt Lake_UT,UT,40.5455996248,-111.694420576
Beaver Creek Dam,Henry County_VA,VA,36.7433,-79.875
Beaverdam Creek Dam,Bedford County_VA,VA,37.3128,-79.8155
College Lake Dam,City Of Lynchburg_VA,VA,37.4016,-79.184
Falls Mill Dam,Tazewell County_VA,VA,37.2722,-81.3229
Godwins Millpond Dam,City Of Suffolk_VA,VA,36.8638,-76.5821
Lake Cohoon Dam,City Of Suffolk_VA,VA,36.7549,-76.6277
Lake Powhatan Dam,Pulaski County_VA,VA,36.9642,-80.6637
Lake Smith Dam,City Of Virginia Beach_VA,VA,36.8932,-76.1631
Lake Summit Dam,City Of Lynchburg_VA,VA,37.3596,-79.2443
Little Creek Dam,James City County_VA,VA,37.3504,-76.8407
South River Dam #19,Augusta County_VA,VA,38.0133,-78.9695
Thompson Dam,Fauquier County_VA,VA,38.9571,-77.9922
Twin Lakes Dam #2,Greene County_VA,VA,38.2499,-78.4409
Winston Lake Dam,City Of Richmond_VA,VA,37.544000000000004,-77.5918
Woodland Pond,Chesterfield County_VA,VA,37.352,-77.5422
Chestnut Hill Reservoir,Windham_VT,VT,42.8539619445801,-72.56666564941409
East Long Pond,Washington_VT,VT,44.4492301940918,-72.3468704223633
Institute Pond,Caledonia_VT,VT,44.537078857421896,-72.0163803100586
Lake Sadawga,Windham_VT,VT,42.789009094238295,-72.88050842285159
Snow Lake,Windham_VT,VT,42.9639472961426,-72.88868713378909
Stiles Pond,Caledonia_VT,VT,44.42204284667971,-71.94635009765629
Sweet Pond,Windham_VT,VT,42.750816345214794,-72.6355514526367
Waterbury,Washington_VT,VT,44.3812866210938,-72.76768493652341
Windsor Upper,Windsor_VT,VT,43.4763069152832,-72.395393371582
Beryl Baker Dam,Stevens_WA,WA,48.069468,-117.53836799999999
Black Rock Orchards Dam,Yakima_WA,WA,46.499603637662794,-120.09961830555599
Blair Reservoir Dam,Benton_WA,WA,46.172236,-119.106489
Camp Kwoneesum Dam,Skamania_WA,WA,45.671351,-122.21886699999999
Davenport Sewage Lagoon No. 3,Lincoln_WA,WA,47.667547,-118.141719
Den Hoed Dam No. 1,Yakima_WA,WA,46.3755495,-119.96410244444401
Evans Pond Dam,Yakima_WA,WA,46.59860963408871,-120.76363844444401
Fanchers Dam,Okanogan_WA,WA,48.8292,-119.261627
Gap Road Reservoir,Benton_WA,WA,46.2539686038016,-119.788983111111
Kayak Lake Dam,Snohomish_WA,WA,47.782211,-121.931649
Koura Dam,Kitsap_WA,WA,47.662577,-122.54331499999999
Meadow Lake Dam,Chelan_WA,WA,47.360339,-120.21472800000001
Newman Lake Flood Control Dam,Spokane_WA,WA,47.771155,-117.077871
Nielsen Dam B,Snohomish_WA,WA,47.78152,-122.20856100000002
Nielsen Dam C,Snohomish_WA,WA,47.783788,-122.208179
Parker Reservoir Dam,Yakima_WA,WA,46.570861,-120.72935
Spokane Hutterian Brethren Dam,Spokane_WA,WA,47.689156,-117.719169
Tri Mountain Estates Dam,Clark_WA,WA,45.875828000000006,-122.580299
Upper Sunlight Lake Dam,Kittitas_WA,WA,47.126003000000004,-120.77509199999999
Zirkle Partridge Ranch Dam,Grant_WA,WA,46.7608040555556,-119.700778582052
Friendship,Adams_WI,WI,43.97502,-89.8166
Lake Camelot,Adams_WI,WI,44.20451,-89.77512
Mead,Clark_WI,WI,44.7890755,-90.772712
Montello Granite,Marquette_WI,WI,43.793378499999996,-89.3288755
Poy Sippi,Waushara_WI,WI,44.13617,-88.99738
Spring Creek,Portage_WI,WI,44.38964,-89.30584
Antero Resources Rossco Pond Dam,Harrison_WV,WV,39.31434,-79.58651
B & O Dam,Preston_WV,WV,39.37917,-78.16111
Bear Rocks Lake No.1,Ohio_WV,WV,40.073609999999995,-79.4675
Bear Rocks Lake No.2,Ohio_WV,WV,40.077220000000004,-79.46694000000001
Bear Rocks Lake No.3,Ohio_WV,WV,40.08167,-79.46444
Bluewell Water Supply Dam No.1,Mercer_WV,WV,37.30222,-80.74806
Bluewell Water Supply Dam No.2,Mercer_WV,WV,37.30833,-80.75278
Camp Caesar Dam,Webster_WV,WV,38.4125,-79.5125
Conaway Run Dam,Tyler_WV,WV,39.42028,-79.15278
Culloden Water Supply Dam,Cabell_WV,WV,38.41333,-81.94028
Elk Two Mile #14 Dam,Kanawha_WV,WV,38.36056,-80.48694
Fairfax Pond,Preston_WV,WV,39.49389,-78.20278
Flat Top Lake Dam,Raleigh_WV,WV,37.628890000000006,-80.90139
Hatfield Farm Lake,Cabell_WV,WV,38.382220000000004,-81.76722
Hazel Run Dam,Preston_WV,WV,39.69222,-78.30167
Horton Dam,Mercer_WV,WV,37.279720000000005,-80.82417
Huffman Dam,Mason_WV,WV,38.9275,-80.04944
Lake Of Eden,Cabell_WV,WV,38.40889,-81.74694000000001
Lake Stephens Dam,Raleigh_WV,WV,37.77694,-80.69111
Lough Lake,Monongalia_WV,WV,39.62389,-79.91528000000001
Lynch Lake,Monongalia_WV,WV,39.62167,-79.90583000000001
Mcclintic #23 Dam,Mason_WV,WV,38.89861,-81.90278
New Bramwell Dam,Mercer_WV,WV,37.31944,-80.69360999999999
New Lumberport Dam,Harrison_WV,WV,39.38111,-79.63972
Scott Lake,Randolph_WV,WV,38.81361,-78.12306
Tennants Farm Pond,Wood_WV,WV,39.27694,-80.58333
Upper Smith Dam,Wood_WV,WV,39.23417,-80.42194
Bear Claw Love No. 1,Sheridan_WY,WY,44.9033333333333,-107.333333333333
Bull Lake,Fremont_WY,WY,43.210278,-109.0425
Cardine Keith,Natrona_WY,WY,42.691944444444395,-106.123055555556
Dome Lake No. 1,Sheridan_WY,WY,44.5916666666667,-107.29638888888901
Dull Knife,Johnson_WY,WY,44.019444444444396,-107.053333333333
Enl. Turpin Park,Carbon_WY,WY,41.4438888888889,-106.385833333333
Glendo,Platte_WY,WY,42.4794,-104.95
Guernsey,Platte_WY,WY,42.29,-104.763333333333
Jackson Lake,Teton_WY,WY,43.86,-110.59
Kemmerer,Lincoln_WY,WY,41.9389,-110.645833333333
Leavitt,Big Horn_WY,WY,44.6430555555556,-107.86305555555599
Middle Piney,Sublette_WY,WY,42.6036111111111,-110.566111111111
O S W,Fremont_WY,WY,43.27722222222221,-107.682777777778
Pathfinder,Natrona_WY,WY,42.467997533333296,-106.85409111
Pathfinder Dike,Natrona_WY,WY,42.4647347,-106.85260611
Seminoe,Carbon_WY,WY,42.1566666666667,-106.90833333333299
Spring Creek (Enlargement),Carbon_WY,WY,42.2630555555556,-106.669722222222
Washington Memorial,Crook_WY,WY,44.40667,-104.36667
